{"type":"FeatureCollection","features":[{"type":"Feature","properties":{"nome":"NOVO ISRAEL"},"geometry":{"type":"Polygon","coordinates":[[[-60.00959851599998,-3.023269818900427],[-60.00869851099998,-3.022289814900477],[-60.01120852599997,-3.0233298189004447],[-60.013168536999956,-3.023319817900424],[-60.017098560999955,-3.027019834900331],[-60.01740856299995,-3.027339836900283],[-60.01704856099996,-3.02745983790031],[-60.01837856899994,-3.0284398419002603],[-60.01795856699994,-3.0306098529001684],[-60.01911857499994,-3.0329798649001214],[-60.009828521999964,-3.0326598679001093],[-60.007418508999926,-3.0343498779000604],[-60.006768503999986,-3.0314998629001737],[-60.00581849899998,-3.031429862900178],[-60.00553849599998,-3.0292398519002193],[-60.00431848899996,-3.028159846900244],[-60.00850851199994,-3.026409835900349],[-60.00919851499999,-3.024969827900359],[-60.011298526999944,-3.0249198269003887],[-60.01010851899998,-3.0236898209004126],[-60.00959851599998,-3.023269818900427]]]}},{"type":"Feature","properties":{"nome":"PARQUE 10 DE NOVEMBRO"},"geometry":{"type":"Polygon","coordinates":[[[-59.99095842899994,-3.062690031899162],[-59.99229843699993,-3.063170033899106],[-59.993488443999986,-3.062750030899131],[-59.994148446999986,-3.0630800328991183],[-60.000968485999984,-3.0631200298991046],[-60.001298488999964,-3.06412003489911],[-60.006638521999946,-3.070750066898871],[-60.007118524999946,-3.072350074898845],[-60.01153855099995,-3.0743900828987716],[-60.01293855899996,-3.074060080898782],[-60.015898575999984,-3.0746400818987656],[-60.015938576999986,-3.0750000838987317],[-60.016388578999965,-3.074930083898743],[-60.01588857699994,-3.0772400958986723],[-60.02347862099999,-3.0788100998985986],[-60.02349862099999,-3.0792901028985913],[-60.02444862699997,-3.079480102898617],[-60.02408863499994,-3.10130021589789],[-60.022308623999955,-3.0996002078979417],[-60.02142861799996,-3.0959001898980483],[-60.01626858799994,-3.0941501828981095],[-60.01589858599993,-3.0949901878980643],[-60.01456857799997,-3.095070188898082],[-60.01416857599998,-3.0947401868980884],[-60.013198570999975,-3.09527018989807],[-60.01317856999998,-3.09477018789806],[-60.00938854799995,-3.093390181898126],[-60.009168544999966,-3.089580162898245],[-60.00632852899997,-3.0887701598983],[-60.004638517999986,-3.0874401538983496],[-60.00359851199994,-3.085240142898417],[-60.00148849899995,-3.084250138898429],[-60.00132849699998,-3.0825701298984978],[-60.000518492999966,-3.082630130898504],[-59.99984848899998,-3.0818001268985107],[-59.99848848099999,-3.081420125898528],[-59.99837847999998,-3.0809601228985373],[-59.99744847499994,-3.0809101238985455],[-59.99512846099998,-3.078840113898606],[-59.99284844799997,-3.079100115898596],[-59.99168843999996,-3.077460107898667],[-59.99022843199998,-3.0780101118986387],[-59.98980842899993,-3.0768901058986677],[-59.98890842399999,-3.0769301068986703],[-59.98794841899996,-3.0761701038987166],[-59.98787841799999,-3.075670100898716],[-59.986828411999966,-3.0762701048986707],[-59.986348408999966,-3.075230098898722],[-59.98521840299997,-3.075050098898729],[-59.98491839999997,-3.0742700948987767],[-59.985538402999964,-3.0720900838988445],[-59.98606840499997,-3.0710700778988445],[-59.98666840899995,-3.070780075898867],[-59.98734841199996,-3.0691400668989495],[-59.98683840799999,-3.0679500618989803],[-59.98734840999998,-3.0651000468990377],[-59.98857841599993,-3.063880039899105],[-59.99010842499995,-3.063530036899122],[-59.99089842899997,-3.062740032899136],[-59.99095842899994,-3.062690031899162]]]}},{"type":"Feature","properties":{"nome":"PETRÓPOLIS"},"geometry":{"type":"Polygon","coordinates":[[[-59.98811842799995,-3.093300191898141],[-59.98941843499994,-3.093630192898141],[-59.992928456999955,-3.0979702138979626],[-59.99551847299995,-3.099770221897934],[-59.99772848699996,-3.1032002388977875],[-59.99856849199995,-3.1038002408977685],[-59.99843849299998,-3.1075402608976535],[-59.99784849099996,-3.1095702718975793],[-59.99910849799995,-3.109890272897597],[-60.000488505999954,-3.111130277897556],[-60.00231851899997,-3.115730300897376],[-60.00220851899996,-3.1167503068973756],[-60.000448509999956,-3.119990323897263],[-59.99691849099997,-3.1209203308972553],[-59.99494848099993,-3.123840346897122],[-59.994138475999925,-3.124070347897148],[-59.992838468999935,-3.1242903498971284],[-59.99123845799994,-3.1204703308972688],[-59.991368458999936,-3.1193803258972674],[-59.99263846499998,-3.117130312897364],[-59.99218846099996,-3.115690305897428],[-59.99241846299997,-3.1153403038974323],[-59.99190845899995,-3.114920301897444],[-59.99280846399994,-3.114150297897466],[-59.98863843899994,-3.110670281897553],[-59.98985844499999,-3.1095502748975963],[-59.98798843399999,-3.107810266897643],[-59.98842843599994,-3.1075802658976697],[-59.987568430999936,-3.1067502618976772],[-59.987358428999976,-3.104960252897748],[-59.988218433999975,-3.1049702528977754],[-59.98862843499995,-3.1022702378978493],[-59.982738400999956,-3.101620237897863],[-59.98565841499993,-3.0955502048980477],[-59.987738425999964,-3.093570193898112],[-59.98811842799995,-3.093300191898141]]]}},{"type":"Feature","properties":{"nome":"RAIZ"},"geometry":{"type":"Polygon","coordinates":[[[-59.99494848099993,-3.123840346897122],[-59.99691849099997,-3.1209203308972553],[-60.00025850899994,-3.1201803248972735],[-60.000208510999975,-3.124110345897125],[-60.00106851699996,-3.125870353897089],[-60.001248518999944,-3.12764036289701],[-60.00032851599997,-3.1329403908968607],[-59.99938850999996,-3.131900385896844],[-59.99486848399994,-3.130240379896949],[-59.993968477999935,-3.1290203738969504],[-59.99282847099994,-3.1282703708969644],[-59.992838468999935,-3.1242903498971284],[-59.99491848099996,-3.1238603468971284],[-59.99494848099993,-3.123840346897122]]]}},{"type":"Feature","properties":{"nome":"PLANALTO"},"geometry":{"type":"Polygon","coordinates":[[[-60.05807880499998,-3.0541499558994136],[-60.06220882799994,-3.053579950899447],[-60.06442884099993,-3.0526699458994933],[-60.06478884299998,-3.0530599468994533],[-60.06508884599998,-3.057249968899305],[-60.06595885199994,-3.058169972899296],[-60.06605885299996,-3.060399984899206],[-60.06700885899994,-3.061479989899175],[-60.067128860999965,-3.062579994899149],[-60.066678857999925,-3.0631799988991126],[-60.06689885999998,-3.0641100028990773],[-60.06727886199997,-3.0647400068990733],[-60.06847886899993,-3.0653300088990743],[-60.06869887099998,-3.066150012899036],[-60.06717886499996,-3.071150039898874],[-60.06293884099995,-3.0720100458988226],[-60.06254883999998,-3.074090056898787],[-60.060738829999934,-3.073700055898774],[-60.05993882499995,-3.0739800578987797],[-60.05990882499998,-3.0743500598987747],[-60.057888813999966,-3.0743300608987587],[-60.05423879199998,-3.071260045898869],[-60.05326878699997,-3.07191004989881],[-60.050998773999936,-3.072190052898799],[-60.04695875099998,-3.0714400508988655],[-60.04622874199998,-3.0618000008991557],[-60.04690874499994,-3.0607799958991997],[-60.04809875199998,-3.060099991899215],[-60.04970875999999,-3.0594099868992757],[-60.052348774999984,-3.058999983899273],[-60.05424878399998,-3.0551699628994],[-60.05612879399997,-3.0543499578993916],[-60.057878803999984,-3.0541799558993956],[-60.05807880499998,-3.0541499558994136]]]}},{"type":"Feature","properties":{"nome":"SANTO ANTONIO"},"geometry":{"type":"Polygon","coordinates":[[[-60.04048873399995,-3.114390275897427],[-60.050618789999994,-3.110170248897593],[-60.05175879699994,-3.111950257897549],[-60.05255880299995,-3.1145102708974592],[-60.052228800999956,-3.1149502728974467],[-60.04982878799995,-3.115440276897399],[-60.049428785999964,-3.116210280897383],[-60.049408786999955,-3.118040289897319],[-60.04837878099994,-3.1191102958973094],[-60.036218711999936,-3.118050296897342],[-60.03379869699996,-3.116220288897385],[-60.03336869399993,-3.114980281897445],[-60.034838702999934,-3.1147702808974302],[-60.03639871099995,-3.1139302748974766],[-60.040128731999964,-3.1144202758974604],[-60.04048873399995,-3.114390275897427]]]}},{"type":"Feature","properties":{"nome":"SANTO AGOSTINHO"},"geometry":{"type":"Polygon","coordinates":[[[-60.064418855999975,-3.085220113898428],[-60.07012888899993,-3.0859401148983956],[-60.07012888999997,-3.0893501318982493],[-60.06939888699998,-3.0923401478981565],[-60.070428894999964,-3.095660164898071],[-60.07130889999996,-3.096690169898005],[-60.074748919999934,-3.097760172897959],[-60.07322891299998,-3.099360181897926],[-60.073068912999986,-3.10158019389786],[-60.07149890299996,-3.100730189897914],[-60.07045889699997,-3.0995801848979547],[-60.071278900999964,-3.098820180897953],[-60.068208882999954,-3.096910171898044],[-60.06484886599998,-3.1007801938979154],[-60.06059883899997,-3.094480162898104],[-60.05880882799994,-3.0937301598981177],[-60.063078848999965,-3.0860901188983636],[-60.064358855999956,-3.0852401138983745],[-60.064418855999975,-3.085220113898428]]]}},{"type":"Feature","properties":{"nome":"SÃO JORGE"},"geometry":{"type":"Polygon","coordinates":[[[-60.04555875399996,-3.095480175898081],[-60.04701876199993,-3.0949401718980813],[-60.04764876499997,-3.0942601678981],[-60.04785876599994,-3.0924301588981535],[-60.05191878899995,-3.093450161898127],[-60.05111878599997,-3.0958201748980687],[-60.04885877399993,-3.0973801838980193],[-60.046848764999936,-3.1027802128978252],[-60.046048760999945,-3.1035502168978115],[-60.04429875099999,-3.104280221897761],[-60.04439875399998,-3.109160246897637],[-60.04280874499995,-3.1089302468976006],[-60.04285874699997,-3.113360268897465],[-60.04048873399995,-3.114390275897427],[-60.03639871099995,-3.1139302748974766],[-60.034838702999934,-3.1147702808974302],[-60.03336869399993,-3.114980281897445],[-60.03196868599997,-3.1137502768974605],[-60.03135868199996,-3.112370269897486],[-60.03040867599998,-3.111810266897527],[-60.03043867599996,-3.1104002598975717],[-60.02892866599996,-3.109090253897627],[-60.02855866399995,-3.1081302488976386],[-60.02947866799997,-3.106010237897716],[-60.02868866299996,-3.1043002288977535],[-60.02886866299996,-3.103150222897803],[-60.02973866799994,-3.102690220897806],[-60.03032867099995,-3.1013102128978933],[-60.03088867399999,-3.10091021089786],[-60.03513869799997,-3.100800207897891],[-60.035608699999955,-3.099420200897906],[-60.03674870599997,-3.099020197897939],[-60.03815871299998,-3.0974301888980116],[-60.03908871899994,-3.0977201898979976],[-60.044178745999936,-3.095570176898065],[-60.04543875299999,-3.0955001758980787],[-60.04555875399996,-3.095480175898081]]]}},{"type":"Feature","properties":{"nome":"PURAQUEQUARA"},"geometry":{"type":"Polygon","coordinates":[[[-59.83595751399997,-2.9891397229015326],[-59.83685751899998,-2.988649719901567],[-59.837687523999925,-2.988699719901555],[-59.83969753599997,-2.989519723901519],[-59.84788758299993,-2.9900997229015247],[-59.85497762399996,-2.992209729901455],[-59.85573763199994,-3.0008297749011583],[-59.89525789299995,-3.07801015689862],[-59.89486789099993,-3.0785201598985923],[-59.892837878999956,-3.0779501578986515],[-59.891497871999945,-3.0780501598986603],[-59.890647866999984,-3.0785501628985954],[-59.88823785499994,-3.0812101768985225],[-59.88374782999995,-3.0826801868984695],[-59.88177781899997,-3.0840401948984244],[-59.879257806999995,-3.087530214898331],[-59.87712779399993,-3.086700210898334],[-59.87540778399995,-3.0849502028984035],[-59.87249776699998,-3.083940198898416],[-59.865867728999945,-3.0832801988984517],[-59.86433771999997,-3.0825701958984837],[-59.862487708999936,-3.0824601958984785],[-59.86160770399994,-3.0814701918984984],[-59.861667702999966,-3.079230179898611],[-59.86099769799995,-3.077160168898677],[-59.85896768599997,-3.07598016389868],[-59.85857768299996,-3.0744801568987223],[-59.856347668999945,-3.0725601478988405],[-59.85639766899994,-3.071430141898843],[-59.85563766399998,-3.070740138898873],[-59.85400765499998,-3.0703001368988856],[-59.84727761299996,-3.0629301018991173],[-59.84494759999996,-3.0623400998991666],[-59.84429759499995,-3.0606400918992205],[-59.84316758899996,-3.060370090899186],[-59.84261758599996,-3.0620500998991704],[-59.84217758399995,-3.0617900988991615],[-59.84233758399995,-3.0605900918991757],[-59.84141757899994,-3.0611300948991924],[-59.83831755999995,-3.059200086899267],[-59.83083751399993,-3.051950052899464],[-59.829217503999985,-3.0497700418995852],[-59.82795749699994,-3.049130038899606],[-59.82593748399995,-3.046950028899658],[-59.825817480999945,-3.041189998899817],[-59.82541747799996,-3.039139988899934],[-59.825807478999934,-3.0383099838999525],[-59.82734748799999,-3.037089976899959],[-59.82754748799994,-3.0361199718999923],[-59.826597481999954,-3.0343099629000543],[-59.82550747499994,-3.0332199579001125],[-59.82479746999996,-3.031369947900177],[-59.825447473999986,-3.0306099439001706],[-59.82539747299995,-3.0294199379002067],[-59.82688748099998,-3.0294199369002217],[-59.828117487999975,-3.028279930900239],[-59.82753748499993,-3.0280499299002703],[-59.82569747399999,-3.0288299349002683],[-59.82451746699997,-3.028349932900269],[-59.823737462999986,-3.0292399379002135],[-59.82278745699994,-3.027219927900316],[-59.82373746199994,-3.026079920900348],[-59.82498746899996,-3.026609923900326],[-59.825277469999946,-3.0253799169003583],[-59.824797467999986,-3.0252699169003607],[-59.82490746799994,-3.0246299129003846],[-59.82603747399997,-3.0245399119004013],[-59.82586747299995,-3.023609907900437],[-59.824817466999946,-3.0228899039004444],[-59.82350745999998,-3.0240099109004017],[-59.82330745599996,-3.019229885900558],[-59.82704747499997,-3.013459853900761],[-59.82908748599995,-3.0122598469007746],[-59.83191750199995,-3.0120798449008026],[-59.83030749299997,-3.0119698449008023],[-59.82883748399997,-3.0108998399008624],[-59.82853748099995,-3.0087598289008812],[-59.82764747599998,-3.007749823900958],[-59.82916748299993,-3.003789802901075],[-59.82948748399997,-3.0038998029010813],[-59.83010748799995,-3.003089798901091],[-59.83087749199995,-3.0032597989011065],[-59.83252750099995,-3.00229979290113],[-59.83382750899995,-3.002799794901078],[-59.834247510999944,-3.002139791901157],[-59.832967502999956,-3.0016597899011512],[-59.83080749099997,-3.0017097909011237],[-59.82881747999995,-3.0022597949010934],[-59.82784747399995,-3.001519791901143],[-59.82765747199994,-3.000419785901179],[-59.82816747499999,-2.999599780901227],[-59.82768747199998,-2.9995097809012288],[-59.82671746699998,-3.0001897849012105],[-59.82613746299996,-2.999559781901203],[-59.826877466999974,-2.997909772901252],[-59.82776746899998,-2.9927797459014176],[-59.82920747699996,-2.9913897379014798],[-59.831977492999954,-2.991809738901476],[-59.83245749599996,-2.992449741901452],[-59.831317489999954,-2.9932397469014265],[-59.83135748999996,-2.993699748901422],[-59.83215749499994,-2.9936797489014166],[-59.83347750199994,-2.992719742901428],[-59.83300749899996,-2.991279735901493],[-59.83422750599993,-2.991559736901449],[-59.83503750999994,-2.9912697349014743],[-59.83530751099993,-2.990489730901521],[-59.83595751399997,-2.9891397229015326]]]}},{"type":"Feature","properties":{"nome":"SÃO JOSÉ OPERÁRIO"},"geometry":{"type":"Polygon","coordinates":[[[-59.94573817099995,-3.0580300298992764],[-59.947338178999985,-3.0577600278993056],[-59.95084819899994,-3.0563000178993427],[-59.953238210999984,-3.054540007899398],[-59.954498218999966,-3.054990009899367],[-59.957868238999936,-3.0580600238992677],[-59.95998825299994,-3.0612900398991907],[-59.96654829199997,-3.0655600588990417],[-59.967968300999985,-3.0673500668989844],[-59.97042831499993,-3.068150069898949],[-59.97393833699994,-3.0708000818988705],[-59.97339833399997,-3.0720500888988345],[-59.97328833399997,-3.0740000988987473],[-59.97241832999998,-3.074910104898739],[-59.971418323999956,-3.074050100898765],[-59.96120826599997,-3.0750401108987475],[-59.958998253999944,-3.0763901188986766],[-59.956198237999956,-3.0757201158987137],[-59.95581823599997,-3.0759501178987296],[-59.95501823099994,-3.0754701158987263],[-59.95174821299998,-3.0756901178987075],[-59.94490817199995,-3.0709700968988396],[-59.94091814899997,-3.069690092898916],[-59.93831813499998,-3.0720201058988446],[-59.93633812699994,-3.0784001398986023],[-59.93246810599999,-3.0809801548985436],[-59.930078093999946,-3.085050176898422],[-59.92619806999994,-3.081020157898528],[-59.91898802699995,-3.0748001288987146],[-59.92236804099997,-3.0655200798990365],[-59.92193803799995,-3.0628300658991234],[-59.92224803599998,-3.05595002989937],[-59.927208064999945,-3.056890032899324],[-59.93004808099993,-3.056350028899322],[-59.93044808399998,-3.058910041899287],[-59.93357810499998,-3.0650400718990376],[-59.93499811199995,-3.064110065899097],[-59.93692812299998,-3.0643300668990867],[-59.93983813899997,-3.0621500538991726],[-59.94098814499995,-3.0621400528991516],[-59.941988150999975,-3.061610049899177],[-59.94564816999996,-3.0580400298993116],[-59.94573817099995,-3.0580300298992764]]]}},{"type":"Feature","properties":{"nome":"SÃO LÁZARO"},"geometry":{"type":"Polygon","coordinates":[[[-59.99250847299998,-3.1358004098967336],[-59.99424848299997,-3.1357604088967292],[-59.99440848399996,-3.1362504108967135],[-59.99551848999994,-3.1368904138966847],[-59.997098499999936,-3.137250414896662],[-59.99691849899994,-3.137620416896661],[-59.99744850199994,-3.1386304218966434],[-59.998508507999986,-3.1386404218966772],[-59.99852850999997,-3.141220434896592],[-59.99799850699998,-3.1412404348965404],[-59.99775850599996,-3.142820443896496],[-59.999598517999964,-3.1458204578964026],[-59.99756850699998,-3.1462704608964187],[-59.995578494999954,-3.146090461896408],[-59.99239847699993,-3.1448304568964494],[-59.989608457999964,-3.138870426896658],[-59.99032846099993,-3.1373004188966664],[-59.99162846799999,-3.136120411896745],[-59.99247847299995,-3.1363204128967324],[-59.99250847299998,-3.1358004098967336]]]}},{"type":"Feature","properties":{"nome":"SÃO RAIMUNDO"},"geometry":{"type":"Polygon","coordinates":[[[-60.03663871499998,-3.1189503008972634],[-60.036218711999936,-3.118050296897342],[-60.04848878199993,-3.1190902958973066],[-60.04908878599997,-3.119760298897263],[-60.04461876199997,-3.123130318897128],[-60.04324875499998,-3.125150329897076],[-60.04276875299997,-3.1268703388970165],[-60.04073874299996,-3.128690349896964],[-60.04082874299996,-3.1289903508969843],[-60.04065874199995,-3.128790349896989],[-60.038468730999966,-3.1302803588968926],[-60.03618871699996,-3.1294203558969658],[-60.03566871399993,-3.1296503568969363],[-60.03364870199993,-3.1277903478970144],[-60.035348710999976,-3.126070338897073],[-60.03655871799999,-3.126300338897052],[-60.037808723999945,-3.12521033289706],[-60.03673871599995,-3.1194103038972543],[-60.03663871499998,-3.1189503008972634]]]}},{"type":"Feature","properties":{"nome":"PRAÇA 14 DE JANEIRO"},"geometry":{"type":"Polygon","coordinates":[[[-60.009818560999975,-3.1158702978973847],[-60.01024856399993,-3.1153802958974133],[-60.011078568999956,-3.1159902978973655],[-60.01672860099996,-3.115840294897386],[-60.01681860699995,-3.1282503588969726],[-60.009578565999966,-3.1284103628969744],[-60.009478563999956,-3.1255903488970604],[-60.009978565999965,-3.1231003358971443],[-60.01093856999995,-3.1211403248972154],[-60.01039856699998,-3.1208203238972416],[-60.00979856299994,-3.118980313897281],[-60.00989856199994,-3.1162002998973763],[-60.009818560999975,-3.1158702978973847]]]}},{"type":"Feature","properties":{"nome":"PRES. VARGAS"},"geometry":{"type":"Polygon","coordinates":[[[-60.029198673999986,-3.122640323897192],[-60.02669865999997,-3.121500318897202],[-60.026668656999966,-3.115940290897401],[-60.03336869399993,-3.114980281897445],[-60.033838697999954,-3.1165002898973984],[-60.033788697999974,-3.1181602988973207],[-60.03318869599997,-3.120450310897249],[-60.03191868899995,-3.1215803168971936],[-60.03184868999995,-3.123420326897154],[-60.03221869199996,-3.1238803288971533],[-60.03072868399993,-3.1237003288971543],[-60.03029868099998,-3.123080325897184],[-60.029978678999946,-3.1231903258971294],[-60.030038678999965,-3.1227803238971727],[-60.02941867599997,-3.1226603238971973],[-60.029198673999986,-3.122640323897192]]]}},{"type":"Feature","properties":{"nome":"REDENÇÃO"},"geometry":{"type":"Polygon","coordinates":[[[-60.034528669999986,-3.050109946899554],[-60.034148665999965,-3.046599928899678],[-60.049108751999945,-3.0481599298996027],[-60.04966875699996,-3.052359950899495],[-60.054128782999946,-3.0532799538994393],[-60.05438878499995,-3.055109962899378],[-60.052348774999984,-3.058999983899273],[-60.04970875999999,-3.0594099868992757],[-60.04809875199998,-3.060099991899215],[-60.04690874499994,-3.0607799958991997],[-60.04622874199998,-3.0618000008991557],[-60.045778738999964,-3.0606999958991747],[-60.044228729999986,-3.0605699958992205],[-60.04195871799994,-3.061950003899133],[-60.041808716999974,-3.061079999899185],[-60.04106871199997,-3.0607099978991847],[-60.03988870599994,-3.0612700018991865],[-60.04030870899999,-3.062390006899172],[-60.03923870299997,-3.0627500098991276],[-60.03878869999994,-3.0619900058991782],[-60.037798693999946,-3.062220007899145],[-60.03793869499998,-3.0628400108991123],[-60.03423867399994,-3.0625200108991333],[-60.034208673999956,-3.062020007899139],[-60.036028682999984,-3.0599499968992054],[-60.03603868299996,-3.059459993899236],[-60.03543867899999,-3.057909985899313],[-60.03416867199997,-3.0578999868992707],[-60.032818662999944,-3.056419979899319],[-60.032818660999965,-3.0520699568994907],[-60.03401866799998,-3.050799949899518],[-60.034598670999976,-3.0507099498995167],[-60.034528669999986,-3.050109946899554]]]}},{"type":"Feature","properties":{"nome":"SÃO FRANCISCO"},"geometry":{"type":"Polygon","coordinates":[[[-59.99848849199997,-3.1043002438977645],[-59.99856849199995,-3.1038002408977685],[-60.00044850299997,-3.1048302458977544],[-60.00509852899996,-3.104610241897789],[-60.01008855899994,-3.108090257897644],[-60.01065856599996,-3.114680291897426],[-60.00720854699995,-3.1164603028973605],[-60.00639854299993,-3.1172403068973713],[-60.00581854099995,-3.120060321897275],[-60.00185851799994,-3.1201503238972474],[-60.000678510999926,-3.1196303218972945],[-60.00234851899995,-3.1158903018974127],[-60.000488505999954,-3.111130277897556],[-59.99910849799995,-3.109890272897597],[-59.99784849099996,-3.1095702718975793],[-59.99843849299998,-3.1075402608976535],[-59.99845849199994,-3.105030247897736],[-59.99848849199997,-3.1043002438977645]]]}},{"type":"Feature","properties":{"nome":"SÃO GERALDO"},"geometry":{"type":"Polygon","coordinates":[[[-60.02356863899997,-3.115910291897403],[-60.02408863499994,-3.10130021589789],[-60.02466863899996,-3.1017402178978797],[-60.02812865899995,-3.1023802198978125],[-60.02865866199994,-3.102870221897847],[-60.02868866299996,-3.1043002288977535],[-60.02947866799997,-3.106010237897716],[-60.02850866299997,-3.107780247897629],[-60.02892866599996,-3.109090253897627],[-60.03043867599996,-3.1104002598975717],[-60.03040867599998,-3.111810266897527],[-60.03135868199996,-3.112370269897486],[-60.03196868599997,-3.1137502768974605],[-60.03336869399993,-3.114980281897445],[-60.026668656999966,-3.115940290897401],[-60.02356863899997,-3.115910291897403]]]}},{"type":"Feature","properties":{"nome":"LÍRIO DO VALE"},"geometry":{"type":"Polygon","coordinates":[[[-60.06692885899998,-3.0616599908991593],[-60.066808857999945,-3.060989986899211],[-60.06600885299998,-3.060279983899243],[-60.06595885199994,-3.058169972899296],[-60.06508884599998,-3.057249968899305],[-60.06497884399993,-3.0537599508994373],[-60.06442884099993,-3.0526699458994933],[-60.07059887399998,-3.0494799258995613],[-60.07056887499994,-3.0511299348995142],[-60.069848871999966,-3.0533299458994523],[-60.07309889299995,-3.0588899738992663],[-60.07346889599995,-3.0617199878991515],[-60.07605890999998,-3.060969982899189],[-60.07627891399995,-3.0658200078990308],[-60.076318914999945,-3.067560016898976],[-60.07397890599998,-3.076700064898679],[-60.07304890099994,-3.076870065898685],[-60.07227889699993,-3.077690070898643],[-60.071008890999956,-3.0808100878985525],[-60.07152889699996,-3.086050114898397],[-60.06495885899995,-3.0851701128983966],[-60.063308849999935,-3.085810116898367],[-60.06216884199995,-3.0835201058984825],[-60.06282884499996,-3.0807300908985598],[-60.064678853999965,-3.0789100808985963],[-60.064908854999935,-3.0778000748986583],[-60.06445885199997,-3.0755100638987183],[-60.06266883999996,-3.0735400538988094],[-60.06293884099995,-3.0720100458988226],[-60.06717886499996,-3.071150039898874],[-60.06869887099998,-3.066150012899036],[-60.06847886899993,-3.0653300088990743],[-60.066948859999975,-3.0642400038990747],[-60.066678857999925,-3.0631799988991126],[-60.067128860999965,-3.062579994899149],[-60.06692885899998,-3.0617399908991874],[-60.06692885899998,-3.0616599908991593]]]}},{"type":"Feature","properties":{"nome":"NOVA ESPERANÇA"},"geometry":{"type":"Polygon","coordinates":[[[-60.06258883999993,-3.0738700558987917],[-60.06266883999996,-3.0735400538988094],[-60.06437885099996,-3.07537006289875],[-60.064908854999935,-3.0778000748986583],[-60.064678853999965,-3.0789100808985963],[-60.06282884499996,-3.0807300908985598],[-60.06213884199997,-3.0833601048984476],[-60.063308849999935,-3.085810116898367],[-60.06121883999999,-3.0896901378982817],[-60.06060883599997,-3.0889501348982673],[-60.053438796999956,-3.091760152898174],[-60.05250879199997,-3.0924201568981435],[-60.05191878899995,-3.093450161898127],[-60.04785876599994,-3.0924301588981535],[-60.048388767999946,-3.0912601528982036],[-60.051148782999974,-3.0902601458982155],[-60.053648795999955,-3.0880601338982805],[-60.053948796999975,-3.0849201168984206],[-60.05617880799997,-3.082250101898476],[-60.05604880699996,-3.0808900948985567],[-60.05711881299993,-3.0808600948985188],[-60.05757881399995,-3.078070079898658],[-60.05817881699995,-3.0781800798986043],[-60.05881881899995,-3.074310059898764],[-60.05990882499998,-3.0743500598987747],[-60.05993882499995,-3.0739800578987797],[-60.060738829999934,-3.073700055898774],[-60.06254883999998,-3.074090056898787],[-60.06258883999993,-3.0738700558987917]]]}},{"type":"Feature","properties":{"nome":"MAUAZINHO"},"geometry":{"type":"Polygon","coordinates":[[[-59.92152805199998,-3.098410250897972],[-59.92406806599996,-3.0967702408980147],[-59.92432806599999,-3.094440228898068],[-59.927488083999954,-3.094720228898095],[-59.93790814699998,-3.101660259897871],[-59.938728151999946,-3.103490268897815],[-59.938618152999936,-3.1065902848976727],[-59.94095816599997,-3.1063102818976795],[-59.941418168999974,-3.107530287897675],[-59.942268173999935,-3.107540287897653],[-59.943008178999946,-3.1089502948976135],[-59.93986816599994,-3.1192503498972872],[-59.940588170999945,-3.119910352897274],[-59.94301818499998,-3.1203103538972643],[-59.945838199999976,-3.119190346897304],[-59.945838199999976,-3.117850339897338],[-59.94778820999994,-3.1170503348973355],[-59.948058213999964,-3.120850353897247],[-59.945948202999936,-3.1233403678971534],[-59.94714820999997,-3.123440367897129],[-59.94702820999998,-3.1257903798970723],[-59.94755821299998,-3.1257903798970723],[-59.94757821299998,-3.126370382897036],[-59.94841821899997,-3.127330387897031],[-59.94695821199996,-3.1298504008969292],[-59.93876816799997,-3.135280432896736],[-59.93928816999994,-3.1344604288967735],[-59.938758166999946,-3.133350422896834],[-59.939088167999955,-3.1329604208968327],[-59.938658165999975,-3.13188041589686],[-59.93593814899999,-3.128990401896955],[-59.933548133999984,-3.1274703948969913],[-59.93099811799993,-3.1240003788971116],[-59.927838099999974,-3.122530372897182],[-59.92818810099993,-3.1213203658972275],[-59.92761809599995,-3.1174603458973635],[-59.92792809599995,-3.1143603298974445],[-59.92480807699996,-3.112290320897487],[-59.92306806799996,-3.1122203218974844],[-59.921178055999974,-3.111390317897553],[-59.91780803499995,-3.10681029589767],[-59.91675802499998,-3.0982702518979774],[-59.918578034999946,-3.0978602488979834],[-59.92123805099994,-3.098420250897951],[-59.92152805199998,-3.098410250897972]]]}},{"type":"Feature","properties":{"nome":"MONTE DAS OLIVEIRAS"},"geometry":{"type":"Polygon","coordinates":[[[-60.00399846999994,-2.9918896589014867],[-60.00445847299994,-2.9918996589014664],[-60.00442847299996,-2.9921896609014382],[-60.00234846699993,-3.0044797249010453],[-60.00112845999996,-3.0049397279010357],[-60.00105846099996,-3.0077897429009197],[-59.99804844399995,-3.008139745900903],[-59.99821844599995,-3.0109797609008098],[-59.99876844999995,-3.0122397669007666],[-59.997778444999945,-3.0132997729007793],[-59.99756844499995,-3.0154497849006643],[-59.99595843599997,-3.015739786900698],[-59.993008418999985,-3.017049794900616],[-59.99148841099998,-3.0171997959006203],[-59.99007840199994,-3.0153997879007006],[-59.98923839699995,-3.0153197879006837],[-59.988128390999975,-3.0144097839007222],[-59.98596837799994,-3.01388978190076],[-59.985198372999946,-3.013189778900765],[-59.98468836699994,-3.0052397379010096],[-59.98478836499998,-2.999409706901185],[-59.98852838299995,-2.9925196699014633],[-60.00326846599995,-2.9918996599014496],[-60.00399846999994,-2.9918896589014867]]]}},{"type":"Feature","properties":{"nome":"MORRO DA LIBERDADE"},"geometry":{"type":"Polygon","coordinates":[[[-60.00056851699998,-3.1335303938967987],[-60.001258520999954,-3.1330903918968027],[-60.00327853299995,-3.1342003958967664],[-60.00427853999997,-3.1357504038967554],[-60.00482854299997,-3.135780403896734],[-60.00404853999999,-3.1384704178966403],[-60.00338853599993,-3.1390904218966025],[-60.00235852999998,-3.1392604228966148],[-60.002438530999946,-3.1396804248966004],[-60.00174852699996,-3.140100427896573],[-60.00174852799995,-3.1409704318965797],[-60.00382853999997,-3.1428904408965197],[-59.999598517999964,-3.1458204578964026],[-59.99775850599996,-3.142820443896496],[-59.99799850699998,-3.1412404348965404],[-59.99852850999997,-3.141220434896592],[-59.99860850999995,-3.1407704328965655],[-59.99840850799996,-3.139670426896602],[-59.998868508999976,-3.135430404896766],[-60.000478516999976,-3.1335903948967996],[-60.00056851699998,-3.1335303938967987]]]}},{"type":"Feature","properties":{"nome":"N. SRA. DE APARECIDA"},"geometry":{"type":"Polygon","coordinates":[[[-60.02761866499998,-3.1217703198971916],[-60.028698671999955,-3.122510323897184],[-60.029908678999966,-3.122680323897147],[-60.029978678999946,-3.1231903258971294],[-60.03029868099998,-3.123080325897184],[-60.03072868399993,-3.1237003288971543],[-60.03221869199996,-3.1238803288971533],[-60.03274869599995,-3.124860333897098],[-60.03280869699995,-3.126440341897059],[-60.03347870099998,-3.1275803468969903],[-60.03566871399993,-3.1296503568969363],[-60.033738703999965,-3.1307003628969157],[-60.033388701999975,-3.1311803658969057],[-60.033578703999986,-3.1316803688969013],[-60.03319870099994,-3.131100365896879],[-60.03117868999993,-3.132170371896869],[-60.02953868099996,-3.1321003728968697],[-60.02824867299995,-3.130640365896927],[-60.027598668999985,-3.1306503658969005],[-60.02762866699999,-3.1265803448970666],[-60.02761866499998,-3.1217703198971916]]]}},{"type":"Feature","properties":{"nome":"NOSSA SENHORA DAS GRAÇAS"},"geometry":{"type":"Polygon","coordinates":[[[-60.01618858699999,-3.0941501828981095],[-60.01749859499995,-3.0943101828980977],[-60.02142861799996,-3.0959001898980483],[-60.022308623999955,-3.0996002078979417],[-60.02408863499994,-3.10130021589789],[-60.02356863899997,-3.115910291897403],[-60.01672860099996,-3.115840294897386],[-60.01575858899998,-3.102530226897809],[-60.01364857699998,-3.102550227897808],[-60.013198570999975,-3.09527018989807],[-60.01416857599998,-3.0947401868980884],[-60.01456857799997,-3.095070188898082],[-60.01589858599993,-3.0949901878980643],[-60.01594858599998,-3.0945601848981177],[-60.01618858699999,-3.0941501828981095]]]}},{"type":"Feature","properties":{"nome":"COL STO ANTÔNIO"},"geometry":{"type":"Polygon","coordinates":[[[-60.00093846699997,-3.022209817900476],[-60.003188479999956,-3.022529818900445],[-60.00374848299998,-3.023399822900448],[-60.00398848599996,-3.0255998339003325],[-60.00498849099995,-3.0255798339003306],[-60.00503849299997,-3.0278898449002742],[-60.00434848899994,-3.028429848900267],[-60.00554849599995,-3.029249851900245],[-60.00582849899996,-3.0314498639001783],[-60.006768503999986,-3.0314898629001457],[-60.007418508999926,-3.0343498779000604],[-60.009828521999964,-3.0326598679001093],[-60.01911857499994,-3.0329798649001214],[-60.02306859899994,-3.0360198789000385],[-60.02503861099995,-3.0394698958999045],[-60.024838612999986,-3.0442999208997374],[-60.02518861599998,-3.046349931899662],[-60.01941858299994,-3.04636993389965],[-60.01254854299997,-3.0443799268997465],[-60.00120847499994,-3.0361198899000086],[-60.00096846699994,-3.022579819900476],[-60.00093846699997,-3.022209817900476]]]}},{"type":"Feature","properties":{"nome":"COL TERRA NOVA"},"geometry":{"type":"Polygon","coordinates":[[[-60.02122856699998,-2.9911796479014856],[-60.021508567999945,-2.9879696309015764],[-60.022268570999984,-2.9863296219016604],[-60.02228857099994,-2.98533961690169],[-60.030288619999965,-2.993249653901414],[-60.031288625999935,-2.995579665901359],[-60.03138862899994,-2.9995496859012207],[-60.03309864299996,-3.0084797319009193],[-60.03245863999996,-3.0108797449008393],[-60.02762861599996,-3.018439785900563],[-60.01837856899994,-3.0284398419002603],[-60.013168536999956,-3.023319817900424],[-60.01120852599997,-3.0233298189004447],[-60.00869851099998,-3.022289814900477],[-60.011298526999944,-3.0249198269003887],[-60.00919851499999,-3.0249598279003878],[-60.00849851199997,-3.026399835900314],[-60.005028492999934,-3.027879844900299],[-60.00498849099995,-3.0255798339003306],[-60.00397848599994,-3.0255998339003325],[-60.00373848299996,-3.023389822900418],[-60.00317847999998,-3.022529818900445],[-59.99970845999997,-3.02210981790045],[-59.99897845599998,-3.022739821900443],[-59.99792844999996,-3.022959822900441],[-59.997358446999954,-3.022279819900448],[-59.996698442999964,-3.022219819900485],[-59.99513843299997,-3.020429811900549],[-59.99412842799995,-3.0213598169005005],[-59.99355842399995,-3.0207398139005277],[-59.99225841699996,-3.0218698199004748],[-59.99099840899999,-3.019839809900541],[-59.991808412999944,-3.0171997959006203],[-59.99731844299998,-3.015579784900673],[-59.997828445999964,-3.015029781900688],[-59.99776844499996,-3.013319772900781],[-59.99875844999997,-3.012189766900775],[-59.99819844599994,-3.0109197609008547],[-59.99805844399997,-3.0081097459009176],[-60.00104846099998,-3.0077897429009197],[-60.00114845999997,-3.0049097279010555],[-60.00154846199997,-3.004609726901036],[-60.00253846799995,-3.0043497249010427],[-60.00268846899996,-3.004599725901073],[-60.00370847399995,-3.0040397229010556],[-60.00509848199993,-3.0043297229010557],[-60.005758484999944,-3.0029897159010885],[-60.005948484999976,-3.001089705901165],[-60.006808489999976,-2.9995396979012328],[-60.00887850099996,-2.998009688901261],[-60.010298508999945,-2.998129688901242],[-60.01076851099998,-2.997629685901239],[-60.01117851399994,-2.997919686901291],[-60.01148851499994,-2.997459684901291],[-60.01225851999993,-2.9975396849012608],[-60.01244851999997,-2.996909681901306],[-60.01308852399995,-2.9967696799012913],[-60.01369852699997,-2.9957796749013172],[-60.01504853499995,-2.996239676901316],[-60.01705854599999,-2.99530967090137],[-60.01852855399994,-2.995669671901343],[-60.02088856599994,-2.9923596539014174],[-60.02115856699998,-2.9911996479014946],[-60.02122856699998,-2.9911796479014856]]]}},{"type":"Feature","properties":{"nome":"COL. OLIVEIRA MACHADO"},"geometry":{"type":"Polygon","coordinates":[[[-59.99527849499998,-3.1496704798962734],[-60.00486854599995,-3.1421404368965433],[-60.00574855199994,-3.143710443896492],[-60.00867856899998,-3.1453904518964326],[-60.01001857699998,-3.1467204578963757],[-60.00754856499997,-3.1494904728962982],[-60.00376854399997,-3.151150483896253],[-60.00046852599997,-3.153140495896154],[-60.000008523999945,-3.1529904948961476],[-60.00003852399994,-3.153400496896161],[-59.99837851499996,-3.1535204988961723],[-59.99839851499996,-3.1543105028961587],[-59.99814851399998,-3.153810499896159],[-59.99751850999996,-3.15403050189615],[-59.997128507999946,-3.154770505896146],[-59.99731850899997,-3.153860500896139],[-59.99710850799995,-3.154350502896113],[-59.99385848999998,-3.1547905068961417],[-59.99350848799997,-3.1554605108960874],[-59.99233848199997,-3.155700512896079],[-59.99246848199994,-3.155990513896065],[-59.99216848099996,-3.1556305128960886],[-59.99117847499998,-3.1558905138960966],[-59.99118847599993,-3.15705051989602],[-59.99045847099996,-3.156280516896089],[-59.98917846399997,-3.1571805218960622],[-59.988788461999945,-3.1569305208960343],[-59.98714845299997,-3.157440523896057],[-59.985198442999945,-3.1589805328960026],[-59.985068441999935,-3.1580905288959933],[-59.98605844599995,-3.1561005178960837],[-59.98793845599994,-3.1545805088961445],[-59.98983846699997,-3.15463050789614],[-59.990458469999965,-3.1540105048961666],[-59.99245848099997,-3.153550501896177],[-59.99417848899998,-3.1497104808962746],[-59.99490849299997,-3.1497304808962787],[-59.99527849499998,-3.1496704798962734]]]}},{"type":"Feature","properties":{"nome":"EDUCANDOS"},"geometry":{"type":"Polygon","coordinates":[[[-60.008178561999955,-3.1365004058966903],[-60.00947856899995,-3.136190403896708],[-60.010948577999955,-3.136930406896716],[-60.01053857699998,-3.1387504158966255],[-60.010858578999944,-3.139500419896597],[-60.01161858299998,-3.1397904208965883],[-60.01267858899996,-3.1399204208965976],[-60.01365859399994,-3.1390704158966014],[-60.01614860799997,-3.1389304138966456],[-60.01883862599993,-3.143000433896478],[-60.01334859499997,-3.1444704438964863],[-60.01001857699998,-3.1467204578963757],[-60.00867856899998,-3.1453904518964326],[-60.00574855199994,-3.143710443896492],[-60.00486854599995,-3.1421404368965433],[-60.007368559999975,-3.1407104278966096],[-60.008258563999966,-3.1405804268966064],[-60.008178561999955,-3.1365004058966903]]]}},{"type":"Feature","properties":{"nome":"COLÔNIA ANTÔNIO ALEIXO"},"geometry":{"type":"Polygon","coordinates":[[[-59.88236782499995,-3.0894502228982805],[-59.88022781199998,-3.087670214898312],[-59.879247806999956,-3.087530214898331],[-59.88052781299995,-3.0852602018984117],[-59.883677829999954,-3.0826901868984997],[-59.88815785399999,-3.081210177898516],[-59.89057786699994,-3.0785501628985954],[-59.89275787899999,-3.0779401578986234],[-59.894877890999965,-3.0784801598986355],[-59.89562789699994,-3.080610170898532],[-59.89565790299997,-3.0935302378981446],[-59.89782791599998,-3.0942302398980974],[-59.899957926999946,-3.093500235898132],[-59.900307924999936,-3.0851401918983763],[-59.90657796199997,-3.0883702058983244],[-59.90638796199993,-3.088780207898274],[-59.90929797899998,-3.089600210898248],[-59.91108798999994,-3.0918502218981785],[-59.913068001999925,-3.0930702268981283],[-59.91311800199997,-3.0940802318981064],[-59.919138035999936,-3.0938102278981034],[-59.919138034999946,-3.091840217898183],[-59.92091804499995,-3.0914902148982044],[-59.92432806599999,-3.094440228898068],[-59.92421806599998,-3.0963702388980354],[-59.923668063999976,-3.0971802428980255],[-59.921618052999975,-3.09839025089797],[-59.91849803499997,-3.0978702488979564],[-59.91675802499998,-3.0982702518979774],[-59.91765803399994,-3.106260292897692],[-59.921188055999956,-3.111390317897553],[-59.923108067999976,-3.1122203218974915],[-59.924818076999934,-3.11229032089749],[-59.92793809599993,-3.1143603298974445],[-59.92762809599998,-3.1174703468973255],[-59.928198100999964,-3.1213103658971986],[-59.92784809999995,-3.12254037289716],[-59.92505808299996,-3.121150366897194],[-59.920888058999935,-3.1202803638972383],[-59.91995805299996,-3.1192303588973043],[-59.91585802999998,-3.119400361897292],[-59.914948023999955,-3.118590357897302],[-59.91538802699995,-3.118580357897327],[-59.91411801999994,-3.1181903568973115],[-59.91426801999996,-3.117080350897377],[-59.91384801799995,-3.117680353897345],[-59.91223800899996,-3.117930355897306],[-59.90832798599997,-3.1172303548973455],[-59.90150794599998,-3.114000340897456],[-59.90014793699998,-3.1120703318975402],[-59.89996793599994,-3.1111703268975606],[-59.900687938999965,-3.1099803208976056],[-59.89975793399998,-3.109910320897606],[-59.89875792799995,-3.109230317897616],[-59.89872792799997,-3.11041032389755],[-59.89832792599997,-3.1104803238975958],[-59.89650791499998,-3.108820316897599],[-59.896767915999995,-3.1073203088976498],[-59.896087911999984,-3.106600304897722],[-59.89625791199995,-3.1060003018976876],[-59.897367917999986,-3.105250297897721],[-59.897157916999966,-3.104560293897763],[-59.89524790599995,-3.1045302948977773],[-59.89447789999998,-3.102510284897817],[-59.89242788699994,-3.0996102708979354],[-59.89260788699994,-3.0966602558980214],[-59.89223788499998,-3.0960202518980564],[-59.89186788299997,-3.0964902548980118],[-59.89061787499998,-3.0948202468981054],[-59.89045787399994,-3.094140243898113],[-59.89077787499996,-3.093800241898093],[-59.88999787099994,-3.093660240898123],[-59.88921786599996,-3.0925202358981387],[-59.88705785299999,-3.0909602288982208],[-59.88505784099994,-3.0907802288982236],[-59.88245782599994,-3.089470222898286],[-59.88236782499995,-3.0894502228982805]]]}},{"type":"Feature","properties":{"nome":"COMPENSA"},"geometry":{"type":"Polygon","coordinates":[[[-60.04786876899994,-3.1000701978979253],[-60.048968773999945,-3.0972001828979776],[-60.05111878599997,-3.0958201748980687],[-60.05268879299996,-3.0922501558981947],[-60.06076883699996,-3.0889501348982744],[-60.06121883999999,-3.0897201378982624],[-60.05880882799994,-3.0937301598981177],[-60.06059883899997,-3.094480162898104],[-60.06484886599998,-3.1007801938979154],[-60.068208882999954,-3.096910171898044],[-60.071278900999964,-3.098820180897953],[-60.07045889699997,-3.0995801848979547],[-60.072698910999975,-3.101500193897834],[-60.07207890799998,-3.1025201988978477],[-60.071908906999965,-3.1040902078977695],[-60.071308903999984,-3.1044102088977987],[-60.07055890099997,-3.105960217897716],[-60.070318899999954,-3.108270229897648],[-60.06906889299996,-3.1078402278976367],[-60.06973889699998,-3.1090902338976125],[-60.06839888999996,-3.1097202378976077],[-60.06809888899994,-3.110610242897555],[-60.067448884999976,-3.1109402448975416],[-60.06626887899995,-3.1107102438975716],[-60.06479887099993,-3.111750249897518],[-60.06306886099998,-3.111540249897544],[-60.06216885599997,-3.1119302528975394],[-60.06145885199998,-3.1116202508975594],[-60.059698843999975,-3.1153102708973988],[-60.05703882899996,-3.1161402768973727],[-60.055328819999936,-3.117050281897383],[-60.055188818999966,-3.117640285897309],[-60.054248813999955,-3.1177802868973394],[-60.05313880799998,-3.1185902908973246],[-60.04908878599997,-3.119760298897263],[-60.04848878199993,-3.1190902958973066],[-60.049408786999955,-3.118040289897319],[-60.049658786999935,-3.1156302778974165],[-60.05039879099997,-3.1151302748974183],[-60.052228800999956,-3.1149502728974467],[-60.05254880299997,-3.1143602698974537],[-60.05175879699994,-3.111950257897549],[-60.04958878299993,-3.1084302408976345],[-60.04936878099995,-3.105830226897731],[-60.05041878599996,-3.104020217897788],[-60.05040878499994,-3.103280213897791],[-60.04962877999998,-3.1022202088978217],[-60.04876877499999,-3.1019302078978406],[-60.046638763999965,-3.1030702138978183],[-60.04755876799998,-3.1009502028978964],[-60.04786876899994,-3.1000701978979253]]]}},{"type":"Feature","properties":{"nome":"JORGE TEIXEIRA"},"geometry":{"type":"Polygon","coordinates":[[[-59.91571797499995,-3.003619760901049],[-59.93600809199995,-3.00710976990095],[-59.934958086999984,-3.0096497839009007],[-59.93482808699997,-3.012259796900797],[-59.933628080999945,-3.0143398089007474],[-59.93411808399997,-3.015059811900695],[-59.934298085999956,-3.0172198229006244],[-59.93288808099998,-3.0215698469005012],[-59.93298808199995,-3.022989853900434],[-59.93334808399993,-3.0243198609004254],[-59.94007812799999,-3.0366199208999918],[-59.93985812699998,-3.0371299238999656],[-59.94047813099996,-3.037429924899982],[-59.94282814799993,-3.0444999608997088],[-59.94234814499998,-3.044539960899718],[-59.94204814299997,-3.044109958899761],[-59.93986813099997,-3.0450599648997114],[-59.93859812499995,-3.0464299728996544],[-59.93736811799994,-3.0467499748996616],[-59.935048104999964,-3.048369984899619],[-59.93427810099996,-3.049149988899573],[-59.934558102999965,-3.0496699918995733],[-59.932548091999934,-3.0508799988995334],[-59.93081808099999,-3.0479399848996382],[-59.92785806499995,-3.0494799938995856],[-59.92675805899996,-3.050780000899541],[-59.92679805999995,-3.052490009899447],[-59.920138022999936,-3.052490012899472],[-59.917847999999935,-3.031529904900161],[-59.91585797599999,-3.005819772900979],[-59.91571797499995,-3.003619760901049]]]}},{"type":"Feature","properties":{"nome":"COROADO"},"geometry":{"type":"Polygon","coordinates":[[[-59.958998253999944,-3.0763901188986766],[-59.96120826599997,-3.0750401108987475],[-59.971778325999935,-3.074140100898762],[-59.97236832999994,-3.074760103898743],[-59.97392833999999,-3.0784801218986386],[-59.97641835499997,-3.080460130898539],[-59.97884836999998,-3.083680146898432],[-59.98492840599993,-3.08612015689834],[-59.986238413999956,-3.08726016189833],[-59.98829842799995,-3.092380186898165],[-59.98899843199996,-3.092420186898168],[-59.989158432999936,-3.093190190898145],[-59.98875843099995,-3.093500192898126],[-59.98811842799995,-3.093300191898141],[-59.98565841499993,-3.0955502048980477],[-59.98003838899996,-3.1082502728976458],[-59.96517830099999,-3.1011602438978936],[-59.958168260999976,-3.1005402438978877],[-59.957238256999965,-3.1017602508978808],[-59.95335823299996,-3.0983602348979886],[-59.95071821599998,-3.0949002178980947],[-59.948088200999955,-3.093670212898107],[-59.949278204999985,-3.0881001838982804],[-59.955738236999935,-3.079620136898582],[-59.955918236999935,-3.07597011789868],[-59.956198237999956,-3.0757201158987137],[-59.95888825399999,-3.0764001188987087],[-59.958998253999944,-3.0763901188986766]]]}},{"type":"Feature","properties":{"nome":"CRESPO"},"geometry":{"type":"Polygon","coordinates":[[[-59.98604843399993,-3.1302603838969096],[-59.989438450999955,-3.1271303668970227],[-59.99271846999994,-3.128180369896977],[-59.994988483999975,-3.1303103798969363],[-59.99359847699997,-3.130990383896915],[-59.99167846699998,-3.133380397896798],[-59.99191846999997,-3.1357804098967272],[-59.99032846099993,-3.1373004188966664],[-59.989608457999964,-3.138870426896658],[-59.99271847899996,-3.145140457896441],[-59.99701850399998,-3.1462604618963703],[-60.000098520999984,-3.145640456896423],[-59.995598496999946,-3.1495504788963116],[-59.99417848899998,-3.1497104808962746],[-59.98951846199998,-3.1478104728963334],[-59.97597838299998,-3.144320461896446],[-59.97436837399994,-3.143500458896474],[-59.97329836699999,-3.142380452896502],[-59.972758362999976,-3.1403104428966135],[-59.97290836299998,-3.138540433896631],[-59.98027840699996,-3.142320449896517],[-59.98440842799994,-3.1378304238966823],[-59.98838845099994,-3.138460425896635],[-59.98913845499993,-3.1378604218966766],[-59.987718444999985,-3.133710400896827],[-59.98838844799997,-3.1328303968968463],[-59.988378447999935,-3.131810390896848],[-59.987688442999975,-3.1310603878969236],[-59.986408435999984,-3.1310303878968906],[-59.98625843499997,-3.130700386896885],[-59.98604843399993,-3.1302603838969096]]]}},{"type":"Feature","properties":{"nome":"DA PAZ"},"geometry":{"type":"Polygon","coordinates":[[[-60.02499861599994,-3.049429947899574],[-60.02504861399996,-3.0456099278997217],[-60.034148665999965,-3.046599928899678],[-60.034598670999976,-3.0507099498995167],[-60.03401866799998,-3.050799949899518],[-60.032838660999964,-3.0519599568994886],[-60.032818662999944,-3.056419979899319],[-60.03416867199997,-3.0578999868992707],[-60.03543867899999,-3.057909985899313],[-60.03603868299996,-3.059459993899236],[-60.036028682999984,-3.0599499968992054],[-60.034208673999956,-3.062020007899139],[-60.03369867299995,-3.0652400248990843],[-60.03226866499995,-3.066030029899056],[-60.032328664999966,-3.0664100318990295],[-60.031638661999985,-3.06687003489901],[-60.03181866299996,-3.0680000398989704],[-60.02700863699993,-3.07045005489891],[-60.02506862499995,-3.068030043898966],[-60.025078616999956,-3.051099955899541],[-60.02499861599994,-3.049429947899574]]]}},{"type":"Feature","properties":{"nome":"CHAPADA"},"geometry":{"type":"Polygon","coordinates":[[[-60.02432862899996,-3.0854901338983747],[-60.03087866599997,-3.0855701318983644],[-60.03034866499996,-3.089330150898269],[-60.03565869499994,-3.089560149898262],[-60.03567869999995,-3.099350200897918],[-60.03521869799994,-3.1007502078979012],[-60.03088867399999,-3.10091021089786],[-60.03032867099995,-3.1013102128978933],[-60.02987866899996,-3.1025302198978313],[-60.02880866299996,-3.1033502248977776],[-60.02812865899995,-3.1023802198978125],[-60.02466863899996,-3.1017402178978797],[-60.02408863499994,-3.10130021589789],[-60.02430862899996,-3.085770135898381],[-60.02432862899996,-3.0854901338983747]]]}},{"type":"Feature","properties":{"nome":"DISTRITO INDUSTRIAL I"},"geometry":{"type":"Polygon","coordinates":[[[-59.948088200999955,-3.093670212898107],[-59.95071821599998,-3.0949002178980947],[-59.95335823299996,-3.0983602348979886],[-59.95749825799998,-3.101960251897868],[-59.957998260999936,-3.102580254897839],[-59.95854826599999,-3.1051002678977366],[-59.960038274999924,-3.1066002748976986],[-59.963778296999976,-3.1096202878976187],[-59.96803832299997,-3.1120702988974887],[-59.970808339999955,-3.1149003118974465],[-59.97330835399998,-3.1160003168973653],[-59.989438450999955,-3.1271303668970227],[-59.98592843299996,-3.130040382896913],[-59.986408435999984,-3.1310303878968906],[-59.987688442999975,-3.1310603878969236],[-59.988378447999935,-3.131810390896848],[-59.98838844799997,-3.1328303968968463],[-59.987718444999985,-3.133710400896827],[-59.98913845499993,-3.1378604218966766],[-59.98838845099994,-3.138460425896635],[-59.98440842799994,-3.1378304238966823],[-59.98027840699996,-3.142320449896517],[-59.97053834899997,-3.137440428896712],[-59.96550831999996,-3.135900423896725],[-59.96501831599994,-3.1346704168967614],[-59.96272830299995,-3.133380411896816],[-59.95604826499994,-3.133320414896825],[-59.95252824499994,-3.132560412896854],[-59.95129823799993,-3.1328104138968325],[-59.95062823399996,-3.1334104178967928],[-59.949708227999956,-3.1317204098968765],[-59.94695821199996,-3.1298504008969292],[-59.94841821899997,-3.127330387897031],[-59.94757821299998,-3.126370382897036],[-59.94755821299998,-3.1257903798970723],[-59.94702820999998,-3.1257903798970723],[-59.94714820999997,-3.123440367897129],[-59.945948202999936,-3.1233403678971534],[-59.94593820299996,-3.123070366897172],[-59.948058213999964,-3.120850353897247],[-59.94778820999994,-3.1170503348973355],[-59.945838199999976,-3.117850339897338],[-59.945838199999976,-3.119190346897304],[-59.94301818499998,-3.1203103538972643],[-59.940588170999945,-3.119910352897274],[-59.93975816599994,-3.1190303488972986],[-59.94255817699997,-3.11060030389756],[-59.94516819199998,-3.110720302897544],[-59.947498198999945,-3.097140231898014],[-59.948088200999955,-3.093670212898107]]]}},{"type":"Feature","properties":{"nome":"DISTRITO INDUSTRIAL II"},"geometry":{"type":"Polygon","coordinates":[[[-59.86542768199997,-2.9889097079015485],[-59.870217708999974,-2.988909705901562],[-59.871407715999965,-2.989379707901533],[-59.87161771799999,-2.991169716901467],[-59.87310772799999,-2.992779724901411],[-59.87587774399998,-2.9946297329013714],[-59.87561774399995,-2.99698974590128],[-59.90873793399999,-3.0017197549011416],[-59.915707974999975,-3.003619760901042],[-59.91783799999996,-3.031529904900161],[-59.92012802199997,-3.052490012899472],[-59.929748076999935,-3.052470008899451],[-59.93158808899994,-3.056070025899333],[-59.92719806499996,-3.056890032899317],[-59.92224803599998,-3.05595002989937],[-59.92192803799997,-3.0628300658991234],[-59.922358040999946,-3.0655200798990365],[-59.918978025999934,-3.0748001288987146],[-59.92619806999994,-3.081020157898528],[-59.929268088999955,-3.0843601738983977],[-59.933888116999974,-3.0878501898982833],[-59.93699813699993,-3.0910202048982023],[-59.936258133999964,-3.095060225898053],[-59.937428141999995,-3.098100240897964],[-59.94259817099998,-3.096730231898041],[-59.946898193999964,-3.0939702148981163],[-59.948088200999955,-3.0936002128981137],[-59.945158191999944,-3.1107203028975507],[-59.94254817699994,-3.11060030389756],[-59.94299817899997,-3.1089502948976135],[-59.94225817399996,-3.107540287897653],[-59.941408168999935,-3.1075302878976823],[-59.940948165999934,-3.1063102818976795],[-59.938608152999976,-3.1065902848976727],[-59.93871815199997,-3.103490268897815],[-59.93789814699994,-3.101660259897871],[-59.92747808399998,-3.094720228898095],[-59.924318065999955,-3.094440228898068],[-59.92091804499995,-3.091500214898178],[-59.919208035999986,-3.091840217898183],[-59.919208036999976,-3.0938102278981034],[-59.91311800199997,-3.09409023189808],[-59.91307800199996,-3.093060226898156],[-59.91115798999994,-3.0918502218981785],[-59.90936797899996,-3.089600210898248],[-59.90637796199997,-3.088780207898274],[-59.90658796299994,-3.0883902058982664],[-59.900307924999936,-3.0851401918983763],[-59.89997792699995,-3.093490235898156],[-59.897837915999965,-3.0942202398981196],[-59.895667902999946,-3.0935502378981523],[-59.89540790099994,-3.0918602288981893],[-59.89559789599997,-3.080630170898535],[-59.89485789099996,-3.0785201598985923],[-59.895247892999976,-3.07801015689862],[-59.85572763199997,-3.0008297749011583],[-59.85496762399998,-2.992209729901455],[-59.856737633999956,-2.9924397309014203],[-59.862907667999934,-2.9889597099015632],[-59.86503767999994,-2.9889797089015824],[-59.86542768199997,-2.9889097079015485]]]}},{"type":"Feature","properties":{"nome":"DOM PEDRO"},"geometry":{"type":"Polygon","coordinates":[[[-60.04246872999994,-3.0813101038985304],[-60.04368873599998,-3.0802200978985406],[-60.04426873999995,-3.080330097898541],[-60.04657875299994,-3.0812101018985176],[-60.04691875499997,-3.081850104898497],[-60.049278768999955,-3.0821801048985065],[-60.05156878199995,-3.0832401098984743],[-60.05176878599997,-3.088700137898309],[-60.05290879199998,-3.08868013689826],[-60.051148782999974,-3.0902601458982155],[-60.048388767999946,-3.0912601528982036],[-60.047708765999964,-3.094140167898122],[-60.04701876199993,-3.0949401718980813],[-60.044178745999936,-3.095570176898065],[-60.03908871899994,-3.0977201898979976],[-60.03815871299998,-3.0974301888980116],[-60.03674870599997,-3.099020197897939],[-60.03567869999995,-3.099350200897918],[-60.03565869499994,-3.089560149898262],[-60.03034866499996,-3.089330150898269],[-60.03095866599995,-3.0839101228984402],[-60.03336867899998,-3.082750115898472],[-60.03702869999996,-3.0834201178984393],[-60.03798870499997,-3.0826501128984716],[-60.04037871899993,-3.0823601098985023],[-60.04230872899996,-3.0814001048985165],[-60.04246872999994,-3.0813101038985304]]]}},{"type":"Feature","properties":{"nome":"FLORES"},"geometry":{"type":"Polygon","coordinates":[[[-59.99661845199996,-3.0423599238997783],[-60.00068847499995,-3.042499922899827],[-60.00077847599994,-3.0430499258998123],[-60.00986852699998,-3.042469918899778],[-60.01254854299997,-3.0443799268997465],[-60.01941858299994,-3.04636993389965],[-60.02518861599998,-3.046349931899662],[-60.024918614999926,-3.047929939899626],[-60.02523861999998,-3.054359972899437],[-60.02506862499995,-3.068030043898966],[-60.02546862799995,-3.068790046898922],[-60.026418632999935,-3.06939004989889],[-60.030978661999946,-3.0759000818987294],[-60.03148866699996,-3.079320098898611],[-60.03087866599997,-3.0855701318983644],[-60.02432862899996,-3.0854901338983747],[-60.02444862699997,-3.079480102898617],[-60.02349862099999,-3.0792901028985913],[-60.02347862099999,-3.0788100998985986],[-60.01588857699994,-3.0772400958986723],[-60.016388578999965,-3.074930083898743],[-60.015938576999986,-3.0750000838987317],[-60.015898575999984,-3.0746400818987656],[-60.01293855899996,-3.074060080898782],[-60.01153855099995,-3.0743900828987716],[-60.007118524999946,-3.072350074898845],[-60.006638521999946,-3.070750066898871],[-60.001298488999964,-3.06412003489911],[-60.000968485999984,-3.0631200298991046],[-59.994148446999986,-3.0630800328991183],[-59.993488443999986,-3.062750030899131],[-59.99229843699993,-3.063170033899106],[-59.99095842899994,-3.062690031899162],[-59.99010842499995,-3.063530036899122],[-59.98845841599996,-3.0639600398990705],[-59.98734840999998,-3.0651000468990377],[-59.986868406999974,-3.064290042899099],[-59.98607840199997,-3.064090041899113],[-59.98526839699996,-3.0623500328991673],[-59.98423839099996,-3.0621800328991466],[-59.983418385999975,-3.061040026899175],[-59.97995836499995,-3.059420020899228],[-59.97963836299994,-3.058110013899295],[-59.97984836399996,-3.0570800088993137],[-59.97859835599997,-3.0557500018993795],[-59.978418353999984,-3.0547499968993774],[-59.97795835199997,-3.054589996899385],[-59.97746834799994,-3.052189983899464],[-59.977708348999954,-3.0510299778995367],[-59.978438352999945,-3.0508299768995504],[-59.97960835899994,-3.0493699688995637],[-59.98003835999998,-3.0475799588996373],[-59.98295837599994,-3.0457499478997168],[-59.98331837699994,-3.0442499398997214],[-59.98398838099996,-3.04359993689976],[-59.986108391999956,-3.0424499298998224],[-59.99627844999998,-3.0423699248997966],[-59.99661845199996,-3.0423599238997783]]]}},{"type":"Feature","properties":{"nome":"GLÓRIA"},"geometry":{"type":"Polygon","coordinates":[[[-60.03268869599998,-3.12602033989708],[-60.03274869599995,-3.124860333897098],[-60.03184868999995,-3.123420326897154],[-60.03191868899995,-3.1215803168971936],[-60.03339869699994,-3.120030307897276],[-60.03379869699996,-3.116220288897385],[-60.03546870699995,-3.1172502928973245],[-60.03642871299996,-3.118370297897309],[-60.037808723999945,-3.12521033289706],[-60.03655871799999,-3.126300338897052],[-60.035348710999976,-3.126070338897073],[-60.03364870199993,-3.1277903478970144],[-60.03280869699995,-3.126440341897059],[-60.03268869599998,-3.12602033989708]]]}},{"type":"Feature","properties":{"nome":"JAPIIM"},"geometry":{"type":"Polygon","coordinates":[[[-59.958168260999976,-3.1005402438978877],[-59.96517830099999,-3.1011602438978936],[-59.98003838899996,-3.1082502728976458],[-59.982738400999956,-3.101620237897863],[-59.98862843499995,-3.1022702378978493],[-59.988218433999975,-3.1049702528977754],[-59.987358428999976,-3.104960252897748],[-59.987568430999936,-3.1067502618976772],[-59.98842843599994,-3.1075802658976697],[-59.98798843399999,-3.107810266897643],[-59.98985844499999,-3.1095502748975963],[-59.98863843899994,-3.110670281897553],[-59.99280846399994,-3.114150297897466],[-59.99190845899995,-3.114920301897444],[-59.99241846299997,-3.1153403038974323],[-59.99218846099996,-3.115690305897428],[-59.99263846499998,-3.117130312897364],[-59.991368458999936,-3.1193803258972674],[-59.99123845799994,-3.1204703308972688],[-59.992838468999935,-3.1242903498971284],[-59.99282847099994,-3.1282703708969644],[-59.989138449999984,-3.126950365897038],[-59.97330835399998,-3.1160003168973653],[-59.970808339999955,-3.1149003118974465],[-59.96803832299997,-3.1120702988974887],[-59.963778296999976,-3.1096202878976187],[-59.95854826599999,-3.1051002678977366],[-59.957998260999936,-3.102580254897839],[-59.957238256999965,-3.1017602508978808],[-59.95794825999997,-3.1008002458978816],[-59.958168260999976,-3.1005402438978877]]]}},{"type":"Feature","properties":{"nome":"SANTA ETELVINA"},"geometry":{"type":"Polygon","coordinates":[[[-60.015188524999985,-2.973779559902074],[-60.01572852799995,-2.9736395589020366],[-60.01597853099997,-2.97755957990191],[-60.01699853799994,-2.979959591901841],[-60.022278570999966,-2.985329616901655],[-60.02088856599994,-2.9923596539014174],[-60.018508553999936,-2.9956896719013493],[-60.01706854599996,-2.99530967090137],[-60.015068534999955,-2.996239676901316],[-60.01367852699997,-2.9957896749013506],[-60.013098523999986,-2.9967796809013096],[-60.01244851999997,-2.996919681901283],[-60.01227851999993,-2.9975396849012608],[-60.01155851599998,-2.9974396849012868],[-60.01115851299994,-2.9979296869012604],[-60.01075851099995,-2.997629685901246],[-60.010298508999945,-2.9981396889012735],[-60.008888500999944,-2.998009688901261],[-60.00772849399993,-2.9987596929012335],[-60.00684848999998,-2.999499697901221],[-60.005938484999945,-3.00110970590117],[-60.00536848399998,-3.0040497219010383],[-60.00450847899998,-3.0044397239010454],[-60.003328471999964,-3.0041097229010463],[-60.00261846799999,-3.0046097259010422],[-60.00234846699993,-3.0044797249010453],[-60.00263846699995,-3.0019097119011047],[-60.00445847299994,-2.9918996589014664],[-59.99248840499996,-2.9923496669014167],[-59.993448407999956,-2.986279634901651],[-59.992038399999956,-2.985989633901661],[-59.993598406999986,-2.983049617901733],[-59.993968408999926,-2.9831596189017278],[-59.99419840999997,-2.9827196159017464],[-59.99647842299998,-2.982869615901763],[-59.996998425999955,-2.9817896099018033],[-59.998688434999956,-2.9819696099017974],[-59.99955843999999,-2.981389606901774],[-60.00004844299996,-2.981569607901816],[-60.00041844499997,-2.9805096019018027],[-60.00252845699999,-2.981149603901795],[-60.00357846199995,-2.98031959990186],[-60.00577847499994,-2.9795895949018476],[-60.006238476999954,-2.9797895959018357],[-60.00673847999997,-2.979089591901909],[-60.007218482999974,-2.9794495929018865],[-60.00711848199995,-2.9788095899019087],[-60.008138487999986,-2.979369592901864],[-60.009658495999986,-2.979179590901856],[-60.01149850599995,-2.977859582901907],[-60.013878518999945,-2.9769795779019406],[-60.01431852099995,-2.975669570902011],[-60.014028518999964,-2.9753495689019966],[-60.01422851999996,-2.9739095609020696],[-60.015058523999976,-2.9738195609020694],[-60.015188524999985,-2.973779559902074]]]}},{"type":"Feature","properties":{"nome":"SANTA LUZIA"},"geometry":{"type":"Polygon","coordinates":[[[-60.004618541999946,-3.1366904088966856],[-60.00482854299997,-3.135780403896734],[-60.00706855599998,-3.136770407896718],[-60.008178561999955,-3.1365004058966903],[-60.008258563999966,-3.1405804268966064],[-60.007368559999975,-3.1407104278966096],[-60.00382853999997,-3.1428904408965197],[-60.00174852799995,-3.1409704318965797],[-60.00174852699996,-3.140100427896573],[-60.002438530999946,-3.1396804248966004],[-60.00235852999998,-3.1392604228966148],[-60.00372853799996,-3.138880419896652],[-60.00448854099994,-3.1371004108966978],[-60.004618541999946,-3.1366904088966856]]]}},{"type":"Feature","properties":{"nome":"TANCREDO NEVES"},"geometry":{"type":"Polygon","coordinates":[[[-59.941258138999956,-3.0444599618997454],[-59.94211814299995,-3.044099958899734],[-59.94234814499998,-3.044539960899718],[-59.943358150999984,-3.0444899608997313],[-59.946008166999945,-3.0480099778995933],[-59.95125819899994,-3.0519799958994773],[-59.95340821199995,-3.0545500078994303],[-59.95072819799997,-3.056360018899346],[-59.947338178999985,-3.0577600278993056],[-59.94549816899996,-3.058060029899319],[-59.942188151999964,-3.061490048899152],[-59.94098814499995,-3.0621400528991516],[-59.93987813899997,-3.062140053899144],[-59.93716812499997,-3.064210065899066],[-59.93648812099997,-3.0644400668990888],[-59.93499811199995,-3.064110065899097],[-59.93357810499998,-3.0650400718990376],[-59.93044808399998,-3.0589200418992584],[-59.93004808099993,-3.056350028899322],[-59.93159808899998,-3.056070025899333],[-59.92975807699998,-3.052470008899451],[-59.92679805999995,-3.052490009899447],[-59.92675805899996,-3.050780000899541],[-59.92785806499995,-3.0494799938995856],[-59.93081808099999,-3.0479399848996382],[-59.932548091999934,-3.0508799988995334],[-59.934558102999965,-3.0496699918995733],[-59.93427810099996,-3.049149988899573],[-59.935048104999964,-3.048369984899619],[-59.93736811799994,-3.0467499748996616],[-59.93859812499995,-3.0464299728996544],[-59.93978813099995,-3.045119965899718],[-59.940978136999945,-3.0445999618997237],[-59.941258138999956,-3.0444599618997454]]]}},{"type":"Feature","properties":{"nome":"TARUMÃ"},"geometry":{"type":"Polygon","coordinates":[[[-60.03850863599995,-2.9269193069035704],[-60.039698642999944,-2.9275593089035605],[-60.04082864999998,-2.9290493169035345],[-60.04233865899994,-2.92946931790353],[-60.04349866599995,-2.930629323903454],[-60.044408670999985,-2.930879324903482],[-60.04516867499996,-2.930329320903454],[-60.04591867999994,-2.9304393219034517],[-60.04767869099999,-2.9336493369033807],[-60.049988704999976,-2.9361493489032813],[-60.05240871999996,-2.938219358903228],[-60.05273872199996,-2.9381293579032413],[-60.05286872299996,-2.939319363903206],[-60.05448873199998,-2.9397893659031733],[-60.05555873899993,-2.94064936990315],[-60.05613874299996,-2.941919375903081],[-60.05850875699997,-2.944119386903018],[-60.058518756999945,-2.9444993889029916],[-60.05914876099996,-2.9441893869030102],[-60.06090877099996,-2.9455593929029673],[-60.06596880099994,-2.9471093989029202],[-60.06874881699997,-2.9486894059028983],[-60.07060882799993,-2.9501694119028565],[-60.069978824999964,-2.950609414902833],[-60.07064882899993,-2.9516794199027765],[-60.073358843999976,-2.951879419902773],[-60.07425884999998,-2.9522894219027855],[-60.07414884899998,-2.952609423902745],[-60.07568885799998,-2.952939424902743],[-60.07615886099995,-2.953559426902721],[-60.07787887099993,-2.953929428902722],[-60.07969888099996,-2.9533994249027002],[-60.081988893999956,-2.953569424902717],[-60.08403890599993,-2.954959430902678],[-60.08920893599998,-2.956509436902632],[-60.09307895799998,-2.956079432902639],[-60.095528971999954,-2.9569694359026046],[-60.096808978999945,-2.957039435902597],[-60.101539005999946,-2.9558394279026206],[-60.10290901399998,-2.957349434902606],[-60.10331901699993,-2.959079443902524],[-60.10458902499994,-2.9602594489025202],[-60.10344901899998,-2.9608594529024788],[-60.10376902099995,-2.9611494539024648],[-60.10344901899998,-2.961999458902456],[-60.10376902099995,-2.962169458902419],[-60.10330901899994,-2.9631694649024065],[-60.10264901499995,-2.9627894629024403],[-60.10383902299998,-2.9647394729023504],[-60.10556903299993,-2.9650694729023552],[-60.103549022999964,-2.9694594969021875],[-60.10400902699996,-2.9718295089021414],[-60.103469023999935,-2.9723295119020756],[-60.10251901899995,-2.9724295129020994],[-60.102319016999964,-2.972129510902093],[-60.10100901099997,-2.973309517902069],[-60.103019021999955,-2.9729895159020567],[-60.10291902199997,-2.974469522902006],[-60.10481903399995,-2.9765695329019817],[-60.103179023999985,-2.975919530901959],[-60.10477903399993,-2.9778695399019344],[-60.10416903099998,-2.9782795419018915],[-60.103669028999946,-2.9804995539018293],[-60.10273902399996,-2.980419553901859],[-60.102299020999965,-2.9810795579018357],[-60.102969024999936,-2.981459558901824],[-60.10401903099995,-2.9811095569018278],[-60.10483903599999,-2.9815495589018193],[-60.10468903599997,-2.9825795639017434],[-60.10388903099994,-2.9833395689017377],[-60.104019032999986,-2.9846195749016955],[-60.10481903699998,-2.984959576901659],[-60.10547904099997,-2.984679574901717],[-60.107609053999965,-2.986039580901641],[-60.10667904899998,-2.9877795899015878],[-60.10524904199997,-2.9888895969015716],[-60.10465903899995,-2.9903296039015093],[-60.103779033999956,-2.9910696089014936],[-60.10425903799995,-2.9928696179014023],[-60.10414903799995,-2.994829627901349],[-60.10347903499996,-2.9952996309013615],[-60.10311903299999,-2.996529636901333],[-60.10111902299996,-2.998199646901279],[-60.099989016999984,-3.0003396579012],[-60.10018901899997,-3.0011296619011283],[-60.099839016999965,-3.001919666901105],[-60.099239013999984,-3.002109667901119],[-60.09877901099998,-3.001539664901131],[-60.09749900399999,-3.0016096659011646],[-60.09792900699995,-3.003129673901114],[-60.09656899899994,-3.00314967490111],[-60.096118995999966,-3.0021096689011095],[-60.09478898899993,-3.0017296679011207],[-60.094288985999974,-3.0027496739011195],[-60.093288979999954,-3.00263967290113],[-60.090368964999975,-3.0041896829010346],[-60.083928928999974,-3.0049696899010114],[-60.08302892399997,-3.006349696900995],[-60.08248892299998,-3.009679714900872],[-60.08100891599997,-3.0123697289007803],[-60.08100891599997,-3.013869736900725],[-60.08165892099998,-3.0153497449007185],[-60.08078891699994,-3.0172897549006543],[-60.08037891599997,-3.0205197719005126],[-60.08001891399994,-3.020929773900517],[-60.08018891499996,-3.0216797779004914],[-60.07951891199996,-3.022569782900438],[-60.07933891199996,-3.0246597939003763],[-60.077778903999956,-3.0261898019003586],[-60.07833890799997,-3.027759809900291],[-60.07733890199995,-3.028919816900265],[-60.07769890499998,-3.0301698229001888],[-60.07614889699994,-3.0317798319001286],[-60.07597889699997,-3.0340698439000535],[-60.07479889199994,-3.0369898598999763],[-60.075198894999964,-3.03810986489996],[-60.076548902999946,-3.0394398708999013],[-60.07728890899995,-3.043149889899765],[-60.080548929999956,-3.0483399158996294],[-60.08040892899999,-3.049489921899583],[-60.079398923999975,-3.050709927899523],[-60.07909892299995,-3.0522999368994554],[-60.08054893199994,-3.0537199428994524],[-60.08135893799994,-3.055229950899376],[-60.08440895599995,-3.057299959899329],[-60.07890892599995,-3.059759974899246],[-60.078898925999965,-3.0601899778991912],[-60.073478895999976,-3.0617199878991515],[-60.07310889299999,-3.0588899738992663],[-60.069848871999966,-3.0533299458994523],[-60.07057887499997,-3.0511299348995142],[-60.07059887399998,-3.0494799258995613],[-60.06220882799994,-3.053579950899447],[-60.05621879499994,-3.0543299578993834],[-60.05439878499993,-3.055109962899378],[-60.054138782999985,-3.0532799538994393],[-60.04966875699996,-3.052359950899495],[-60.049108751999945,-3.0481599298996027],[-60.02505861399993,-3.0456099278997217],[-60.025128611999946,-3.040399900899856],[-60.02471860899993,-3.0385198908999387],[-60.02307859899997,-3.0360198789000385],[-60.01916857499999,-3.033029864900104],[-60.01818856899997,-3.0315498579001523],[-60.01795856699994,-3.029779848900229],[-60.01850856899994,-3.0282198409002663],[-60.027918617999944,-3.018059783900597],[-60.03242863999998,-3.0109597449008607],[-60.03310864199994,-3.0077097279009397],[-60.031398628999966,-2.9995496859012207],[-60.031338626999975,-2.995839666901306],[-60.030828622999934,-2.9941596589013675],[-60.02973861599997,-2.992589650901425],[-60.01717853899998,-2.9802195929018485],[-60.015928530999986,-2.977299577901916],[-60.01567852699998,-2.97234955290211],[-60.01664853199998,-2.9704695429021912],[-60.02135855599993,-2.96557951490232],[-60.03071860699999,-2.961079486902469],[-60.03256861699998,-2.959139475902545],[-60.03320861999998,-2.956929464902626],[-60.03383861499998,-2.9390693719031904],[-60.03523861799994,-2.927519310903588],[-60.03686862699993,-2.927889311903537],[-60.03732862899994,-2.9272093089036026],[-60.03811863399994,-2.927039307903599],[-60.03850863599995,-2.9269193069035704]]]}},{"type":"Feature","properties":{"nome":"VILA BURITI"},"geometry":{"type":"Polygon","coordinates":[[[-59.94270818899998,-3.1326904178968156],[-59.94695821199996,-3.1298504008969292],[-59.949708227999956,-3.1317204098968765],[-59.95062823399996,-3.1334104178967928],[-59.95129823799993,-3.1328104138968325],[-59.95252824499994,-3.132560412896854],[-59.95604826499994,-3.133320414896825],[-59.96272830299995,-3.133380411896816],[-59.96501831599994,-3.1346704168967614],[-59.96550831999996,-3.135900423896725],[-59.97290836299998,-3.138540433896631],[-59.972758362999976,-3.1403104428966135],[-59.97329836699999,-3.142380452896502],[-59.975308378999955,-3.144030460896462],[-59.98951846199998,-3.1478104728963334],[-59.99417848899998,-3.1497104808962746],[-59.99245848099997,-3.153550501896177],[-59.990458469999965,-3.1540105048961666],[-59.98983846699997,-3.15463050789614],[-59.98793845599994,-3.1545805088961445],[-59.985858444999955,-3.156320518896077],[-59.984838440999965,-3.1594005358959776],[-59.984348437999984,-3.159590536895939],[-59.983808434999965,-3.1590905338959967],[-59.983688433999994,-3.1596805378959827],[-59.98269842899999,-3.159430536895949],[-59.98062841799998,-3.161970550895892],[-59.97960841299994,-3.1623505528958726],[-59.977838402999964,-3.162290553895902],[-59.97761840099997,-3.162120552895888],[-59.97839840499995,-3.161550549895905],[-59.97891840799997,-3.1616305498958677],[-59.980088413999965,-3.1596105388959783],[-59.980778417999936,-3.1594205378959628],[-59.98071841799998,-3.159890539895932],[-59.98162842299996,-3.159970539895954],[-59.98175842399996,-3.1603805418959094],[-59.98204842499995,-3.1595305378959653],[-59.98122842099996,-3.159740538895929],[-59.98119841999994,-3.1590905358959724],[-59.98046841599995,-3.1589005348959605],[-59.98034841499998,-3.1581305308959813],[-59.979498409999955,-3.1581005308960055],[-59.979298407999984,-3.1571205268960463],[-59.97795839999998,-3.156420523896057],[-59.97673839299995,-3.155110516896122],[-59.97417837799997,-3.1547105168961216],[-59.96964835099994,-3.15086049889627],[-59.96386831699993,-3.1486304898963247],[-59.95980829399997,-3.149740497896299],[-59.959138290999924,-3.1505105018962785],[-59.95772828199995,-3.149720498896284],[-59.956318273999955,-3.149570498896273],[-59.95544826999997,-3.1499205008962634],[-59.95195824899997,-3.1491304988963194],[-59.950238238999994,-3.147130488896365],[-59.94803822499995,-3.1453704808964047],[-59.94556820999998,-3.142040464896562],[-59.941658185999984,-3.139960455896574],[-59.940908181999994,-3.1389704508966574],[-59.94052817799997,-3.136650439896682],[-59.93876816799997,-3.135280432896736],[-59.94270818899998,-3.1326904178968156]]]}},{"type":"Feature","properties":{"nome":"VILA DA PRATA"},"geometry":{"type":"Polygon","coordinates":[[[-60.044418753999935,-3.108650243897605],[-60.04429875099999,-3.104280221897761],[-60.04841877299998,-3.10200020789783],[-60.04962877999998,-3.1022202088978217],[-60.05046878599995,-3.103570214897774],[-60.04936878099995,-3.105830226897731],[-60.04950878199997,-3.1078602378976456],[-60.050618789999994,-3.110170248897593],[-60.04285874699997,-3.113360268897465],[-60.04280874499995,-3.1089302468976006],[-60.04439875399998,-3.109160246897637],[-60.044418753999935,-3.108650243897605]]]}},{"type":"Feature","properties":{"nome":"BETÂNIA"},"geometry":{"type":"Polygon","coordinates":[[[-59.99521848599994,-3.1303003798969096],[-59.99938850999996,-3.131900385896844],[-60.00087851899997,-3.13317039189683],[-59.998868508999976,-3.135430404896766],[-59.998508507999986,-3.1386404218966772],[-59.99744850199994,-3.1386304218966434],[-59.99691849899994,-3.137620416896661],[-59.997098499999936,-3.137250414896662],[-59.99551848999994,-3.1368904138966847],[-59.99440848399996,-3.1362504108967135],[-59.99424848299997,-3.1357604088967292],[-59.99250847299998,-3.1358004098967336],[-59.99247847299995,-3.1363204128967324],[-59.99162846799999,-3.136120411896745],[-59.99191846999997,-3.1357804098967272],[-59.99167846699998,-3.133380397896798],[-59.99359847699997,-3.130990383896915],[-59.99501848399996,-3.1303103798969363],[-59.99521848599994,-3.1303003798969096]]]}},{"type":"Feature","properties":{"nome":"CACHOEIRINHA"},"geometry":{"type":"Polygon","coordinates":[[[-60.009758560999956,-3.11509029389744],[-60.01065856599996,-3.114680291897426],[-60.010508564999945,-3.1153802958974133],[-60.009818560999975,-3.1158702978973847],[-60.00977856299994,-3.1188103138973147],[-60.01039856699998,-3.1208203238972416],[-60.01093856999995,-3.1211403248972154],[-60.009978565999965,-3.1231003358971443],[-60.009478563999956,-3.1255903488970604],[-60.00938856599999,-3.129470368896927],[-60.01051857499993,-3.134900395896797],[-60.01008857299996,-3.1357704008967344],[-60.01028857399996,-3.136470404896721],[-60.00947856899995,-3.136190403896708],[-60.00746855799997,-3.1368204078967015],[-60.00427853999997,-3.1357504038967554],[-60.00327853299995,-3.1342003958967664],[-60.00032851599997,-3.1329403908968607],[-60.001248518999944,-3.12764036289701],[-60.00106851699996,-3.125870353897089],[-60.000208510999975,-3.124110345897125],[-60.00020850899995,-3.120360325897265],[-60.000678510999926,-3.1196303218972945],[-60.00185851799994,-3.1201503238972474],[-60.00581854099995,-3.120060321897275],[-60.00639854299993,-3.1172403068973713],[-60.00909855699996,-3.1155102968974098],[-60.009758560999956,-3.11509029389744]]]}},{"type":"Feature","properties":{"nome":"CENTRO"},"geometry":{"type":"Polygon","coordinates":[[[-60.01681860699995,-3.1282503588969726],[-60.01672860099996,-3.115840294897386],[-60.026668656999966,-3.115940290897401],[-60.02669865999997,-3.121500318897202],[-60.02761866499998,-3.1217703198971916],[-60.027598668999985,-3.1306503658969005],[-60.02824867299995,-3.130640365896927],[-60.02967868199995,-3.132150372896851],[-60.03147869199994,-3.132000370896863],[-60.03157869299998,-3.132890375896865],[-60.02998868499998,-3.134560384896755],[-60.03044868799998,-3.13573039089672],[-60.02690866799997,-3.137070399896714],[-60.02386865299997,-3.140860420896579],[-60.01883862599993,-3.143000433896478],[-60.01614860799997,-3.1389304138966456],[-60.01365859399994,-3.1390704158966014],[-60.012318586999974,-3.1399504218966197],[-60.010858578999944,-3.139500419896597],[-60.01053857699998,-3.1387504158966255],[-60.010948577999955,-3.136930406896716],[-60.01028857399996,-3.136470404896721],[-60.01008857299996,-3.1357704008967344],[-60.01052857399998,-3.1340203918968124],[-60.00940856599993,-3.129750369896941],[-60.009578565999966,-3.1284103628969744],[-60.01339858799998,-3.1282903608969574],[-60.01681860699995,-3.1282503588969726]]]}},{"type":"Feature","properties":{"nome":"ZUMBI DOS PALMARES"},"geometry":{"type":"Polygon","coordinates":[[[-59.937268130999946,-3.0756901248986934],[-59.93858813599996,-3.0715901028988415],[-59.940538146999984,-3.0698500938988995],[-59.941668152999966,-3.0697200918989074],[-59.94539817499998,-3.071250097898852],[-59.95131820999996,-3.075530117898727],[-59.95553823399996,-3.075540115898716],[-59.955918236999935,-3.07597011789868],[-59.955948237999955,-3.0789501328986266],[-59.955198234999955,-3.0804801418985464],[-59.95068821199993,-3.086190172898391],[-59.950458209999965,-3.0857401708983674],[-59.94830819799995,-3.0847201668984057],[-59.94673818899997,-3.0854301708983676],[-59.94611818599997,-3.0852601708984033],[-59.945708182999965,-3.0841501648984053],[-59.943578169999974,-3.0828201588984574],[-59.94183816099996,-3.0842801678984446],[-59.940688153999986,-3.083730164898459],[-59.93827814099995,-3.0846601708984065],[-59.93658813099995,-3.0846801718983974],[-59.93149810299997,-3.0860901818983777],[-59.930088093999984,-3.085060176898398],[-59.93105809899999,-3.083180166898482],[-59.93242810599998,-3.081030154898535],[-59.936138125999946,-3.078650140898629],[-59.93717812999996,-3.075990126898704],[-59.937268130999946,-3.0756901248986934]]]}},{"type":"Feature","properties":{"nome":"ADRIANÓPOLIS"},"geometry":{"type":"Polygon","coordinates":[[[-60.000308494999956,-3.089620166898266],[-59.99951848999995,-3.088490161898313],[-60.002308504999974,-3.087170153898364],[-60.00389851399995,-3.085840145898382],[-60.004508517999966,-3.0873001528983233],[-60.00606852699997,-3.0886201588982933],[-60.009168544999966,-3.089580162898245],[-60.00938854799995,-3.093390181898126],[-60.01317856999998,-3.09477018789806],[-60.01364857699998,-3.102550227897808],[-60.01575858899998,-3.102530226897809],[-60.01672860099996,-3.115840294897386],[-60.011078568999956,-3.1159902978973655],[-60.01060856599998,-3.1157002968973795],[-60.01008855899994,-3.108090257897644],[-60.00688853999997,-3.1059702488977035],[-60.00763854399998,-3.1050802438977585],[-60.006108533999964,-3.1020102288978673],[-60.00582853099996,-3.100540220897905],[-60.00591853099996,-3.0992502138979194],[-60.006698534999934,-3.0977002058979948],[-60.00385851699997,-3.093840186898117],[-60.00318851299994,-3.0922601798981413],[-60.003668514999966,-3.0920001778982],[-60.002728508999944,-3.090990172898226],[-60.00184850499995,-3.0914201758981763],[-60.000998498999934,-3.0901101688982404],[-60.00074849799996,-3.0902601698982446],[-60.000308494999956,-3.089620166898266]]]}},{"type":"Feature","properties":{"nome":"ALEIXO"},"geometry":{"type":"Polygon","coordinates":[[[-59.97393833699994,-3.0708000818988705],[-59.97775835899996,-3.0716200848988366],[-59.97805835999998,-3.0714000838988422],[-59.978628363999974,-3.071820085898831],[-59.97854836299995,-3.072280087898829],[-59.97928836799996,-3.0725800888987918],[-59.97949836899995,-3.0723400878988474],[-59.98018837299997,-3.0731000908988046],[-59.98080837699996,-3.0730400908987843],[-59.98337839199996,-3.0749000988987154],[-59.98434839699996,-3.074830097898738],[-59.985088400999985,-3.0742800948987585],[-59.98521840299997,-3.075050098898729],[-59.986348408999966,-3.075230098898722],[-59.986698410999956,-3.076220103898701],[-59.98787841799999,-3.075670100898716],[-59.98794841899996,-3.0761701038987166],[-59.98890842399999,-3.0769301068986703],[-59.98980842899993,-3.0768901058986677],[-59.99022843199998,-3.0780101118986387],[-59.99155843999994,-3.077420107898659],[-59.99284844799997,-3.079100115898596],[-59.99512846099998,-3.078840113898606],[-59.99744847499994,-3.0809101238985455],[-59.99837847999998,-3.0809601228985373],[-59.99848848099999,-3.081420125898528],[-59.99984848899998,-3.0818001268985107],[-60.000518492999966,-3.082630130898504],[-60.00132849699998,-3.0825701298984978],[-60.00148849899995,-3.084250138898429],[-60.002968507999974,-3.084810140898394],[-60.00389851399995,-3.085840145898382],[-60.002308504999974,-3.087170153898364],[-59.99951848999995,-3.088490161898313],[-60.00184850499995,-3.0914201758981763],[-60.002728508999944,-3.090990172898226],[-60.003668514999966,-3.0920001778982],[-60.00318851299994,-3.0922601798981413],[-60.00385851699997,-3.093840186898117],[-60.006698534999934,-3.0977002058979948],[-60.00591853099996,-3.0992502138979194],[-60.00582853099996,-3.100540220897905],[-60.006108533999964,-3.1020102288978673],[-60.00763854399998,-3.1050802438977585],[-60.00688853999997,-3.1059702488977035],[-60.00509852899996,-3.104610241897789],[-60.00044850299997,-3.1048302458977544],[-59.99795848799993,-3.1034102398978147],[-59.99551847299995,-3.099770221897934],[-59.992928456999955,-3.0979702138979626],[-59.989078432999975,-3.0933101918981154],[-59.98899843199996,-3.092420186898168],[-59.98829842799995,-3.092380186898165],[-59.98578841099999,-3.0867001588983705],[-59.97860836899998,-3.083460145898443],[-59.97641835499997,-3.080460130898539],[-59.97392833999999,-3.0784801218986386],[-59.97297833399995,-3.076410111898699],[-59.97242832999996,-3.074910103898753],[-59.97335833499994,-3.0738400988987546],[-59.97340833399994,-3.0720500888988345],[-59.97390833599997,-3.070910082898859],[-59.97393833699994,-3.0708000818988705]]]}},{"type":"Feature","properties":{"nome":"ALVORADA"},"geometry":{"type":"Polygon","coordinates":[[[-60.04206871799994,-3.0619000038991513],[-60.044228729999986,-3.0605699958992205],[-60.04583873899998,-3.060769995899223],[-60.046628744999964,-3.063820011899097],[-60.04695875099998,-3.0714400508988655],[-60.050998773999936,-3.072190052898799],[-60.05326878699997,-3.07191004989881],[-60.05423879199998,-3.071260045898869],[-60.057298809999956,-3.074110059898762],[-60.05881881899995,-3.074310059898764],[-60.05817881699995,-3.0781800798986043],[-60.05757881399995,-3.078070079898658],[-60.05711881299993,-3.0808600948985188],[-60.05604880699996,-3.0808900948985567],[-60.05617880799997,-3.082250101898476],[-60.053948796999975,-3.0849201168984206],[-60.05386879699995,-3.087560130898349],[-60.05290879199998,-3.08868013689826],[-60.05176878599997,-3.088700137898309],[-60.05156878199995,-3.0832401098984743],[-60.049278768999955,-3.0821801048985065],[-60.04691875499997,-3.081850104898497],[-60.04657875299994,-3.0812101018985176],[-60.04426873999995,-3.080330097898541],[-60.04368873599998,-3.0802200978985406],[-60.04246872999994,-3.0813101038985304],[-60.04037871899993,-3.0823601098985023],[-60.03798870499997,-3.0826501128984716],[-60.037108699999976,-3.0834001168984444],[-60.03336867899998,-3.082750115898472],[-60.03095866599995,-3.0839101228984402],[-60.03148866699996,-3.079320098898611],[-60.030978661999946,-3.0759000818987294],[-60.02700863699993,-3.07045005489891],[-60.03181866299996,-3.0680000398989704],[-60.031638661999985,-3.06687003489901],[-60.032328664999966,-3.0664100318990295],[-60.03226866499995,-3.066030029899056],[-60.03369867299995,-3.0652400248990843],[-60.03423867399994,-3.0625200108991333],[-60.03793869499998,-3.0628400108991123],[-60.037798693999946,-3.062220007899145],[-60.03878869999994,-3.0619900058991782],[-60.03923870299997,-3.0627500098991276],[-60.04030870899999,-3.062390006899172],[-60.03988870599994,-3.0612700018991865],[-60.04106871199997,-3.0607099978991847],[-60.041808716999974,-3.061079999899185],[-60.04195871799994,-3.061950003899133],[-60.04206871799994,-3.0619000038991513]]]}},{"type":"Feature","properties":{"nome":"ARMANDO MENDES"},"geometry":{"type":"Polygon","coordinates":[[[-59.94354816999998,-3.0828301588984925],[-59.945708182999965,-3.0841501648984053],[-59.94611818599997,-3.0852601708984033],[-59.94673818899997,-3.0854301708983676],[-59.94830819799995,-3.0847201668984057],[-59.950458209999965,-3.0857401708983674],[-59.95068821199993,-3.086190172898391],[-59.949038203999976,-3.088610186898304],[-59.94809820099993,-3.0936002128981137],[-59.94690819399994,-3.0939702148981163],[-59.94260817099996,-3.096730231898041],[-59.93743814199997,-3.098100240897964],[-59.93626813399994,-3.095060225898053],[-59.937008136999964,-3.0910202048982063],[-59.933898116999956,-3.0878501898982833],[-59.93149810299997,-3.0860901818983777],[-59.93658813099995,-3.0846801718983974],[-59.93827814099995,-3.0846601708984065],[-59.940688153999986,-3.083730164898459],[-59.94183816099996,-3.0842801678984446],[-59.94350816999997,-3.0828401588984646],[-59.94354816999998,-3.0828301588984925]]]}},{"type":"Feature","properties":{"nome":"PONTA NEGRA"},"geometry":{"type":"Polygon","coordinates":[[[-60.08736894799995,-3.004719686901066],[-60.090368964999975,-3.0041896829010346],[-60.09327897999997,-3.00263967290113],[-60.094388986999945,-3.002829673901091],[-60.09478899099998,-3.006309691900978],[-60.09604899799995,-3.0061296899010053],[-60.09474899099996,-3.0075696979009368],[-60.094968992999945,-3.0095297079008714],[-60.09635900199999,-3.011399716900829],[-60.095388996999986,-3.013489727900765],[-60.093428985999935,-3.0133697289007833],[-60.09276898199994,-3.0128997269007542],[-60.09275898299995,-3.0140897329007146],[-60.093408986999975,-3.014239732900725],[-60.09371898899996,-3.015229737900697],[-60.093528988999935,-3.0171597479006023],[-60.09328898699993,-3.0174697499006453],[-60.092768983999974,-3.016889746900621],[-60.09192897999998,-3.01771975190061],[-60.09308898699998,-3.019429759900587],[-60.09155897899995,-3.019749762900527],[-60.09044897199993,-3.0190897599005457],[-60.09007896999997,-3.019749762900527],[-60.09047897299997,-3.0201897649005174],[-60.08932896599998,-3.0199797649005458],[-60.08928896599998,-3.0210097699005307],[-60.09428899499994,-3.021239768900517],[-60.096179004999954,-3.0201297619005376],[-60.09719901099998,-3.0201997619005247],[-60.097879014999926,-3.0206497639004906],[-60.09804901599994,-3.0213097679005227],[-60.09793901599994,-3.0225097739004556],[-60.09713901199995,-3.023229777900449],[-60.10006902799996,-3.0229897749004175],[-60.09982902799999,-3.0249497859004015],[-60.09928902499996,-3.0253897879003357],[-60.100399031999984,-3.0260597909003506],[-60.100519033999944,-3.0293098079002134],[-60.09924902699998,-3.029749810900196],[-60.09936902799996,-3.031239817900177],[-60.101259039999945,-3.0338298309000664],[-60.101629042999946,-3.0360798418999955],[-60.10239904799993,-3.037759850899976],[-60.10399905799994,-3.0381498518999335],[-60.10419905899994,-3.038969855899898],[-60.10371905699998,-3.0397498598999078],[-60.10614907099994,-3.041179865899829],[-60.10630907299998,-3.0433698778997806],[-60.105019065999954,-3.04372987989975],[-60.10578907099995,-3.044739884899734],[-60.106489074999956,-3.044919885899714],[-60.11024909599996,-3.0439898788997812],[-60.11130910199996,-3.04590988789966],[-60.110919100999986,-3.046409890899658],[-60.108859088999964,-3.045819888899713],[-60.10978909399995,-3.0465298918996817],[-60.109689093999975,-3.047309895899634],[-60.10928909199999,-3.0479098998996474],[-60.10900908999998,-3.047739898899637],[-60.108469087999936,-3.049779909899533],[-60.109419093999975,-3.051609918899478],[-60.10977909699994,-3.0519999208994775],[-60.10968909599996,-3.050959914899536],[-60.11063910099995,-3.0503499118995316],[-60.11136910399995,-3.048929903899611],[-60.11369911699995,-3.048769901899585],[-60.11478912399997,-3.0500199078995687],[-60.11464912399998,-3.051469914899479],[-60.11519912699998,-3.051659915899494],[-60.11556912999998,-3.0531999238994545],[-60.11513912799995,-3.0534799258994547],[-60.114379122999935,-3.052929922899469],[-60.113539118999945,-3.053349925899448],[-60.113359117999956,-3.0541999298993887],[-60.113979121999925,-3.055199934899395],[-60.113059116999985,-3.0558399388993642],[-60.113299118999976,-3.0574899468993193],[-60.110949105999964,-3.0582999518992993],[-60.11055910599998,-3.061379968899197],[-60.10966910099995,-3.0617299708991927],[-60.10977910199995,-3.062489974899141],[-60.10904909799996,-3.0636399808990906],[-60.10796909199996,-3.063849982899101],[-60.10787909199996,-3.0645999858990853],[-60.106949086999975,-3.0645599868990656],[-60.10594908099995,-3.063629981899106],[-60.10170905699993,-3.06410998689908],[-60.10059905099995,-3.065309993899063],[-60.09916904299997,-3.0657699968990464],[-60.09819903799996,-3.0670600038989697],[-60.096809030999964,-3.067510006898982],[-60.095519023999934,-3.0691700158989073],[-60.09425901699996,-3.0693400168989116],[-60.09407901699996,-3.0704900228988676],[-60.09332901299995,-3.071650029898842],[-60.090728998999964,-3.0730300378988047],[-60.08844898799998,-3.076920058898689],[-60.089718995999995,-3.0786400678986303],[-60.08943899499996,-3.079930073898569],[-60.08968899699994,-3.0811300798985575],[-60.088468989999974,-3.0809300798985615],[-60.08827898899994,-3.0818400848985106],[-60.08616897799993,-3.0827400898984827],[-60.08499897099994,-3.0824000888985124],[-60.08315896099999,-3.084160098898452],[-60.08163895299998,-3.0849001038983905],[-60.079278940999984,-3.087400117898326],[-60.07865893699994,-3.087150116898349],[-60.079158940999946,-3.0885401238983037],[-60.078708939999956,-3.092100141898154],[-60.078068936999955,-3.0925001448981857],[-60.07791893599994,-3.093300148898143],[-60.07714893199994,-3.09331014889811],[-60.07744893399996,-3.0940101528980986],[-60.07705893199994,-3.0938501518981205],[-60.07616892699997,-3.094690156898078],[-60.07634892799996,-3.0950701588980563],[-60.07602892599993,-3.094860157898093],[-60.07526892199996,-3.095470160898091],[-60.074748919999934,-3.097760172897959],[-60.07120889999999,-3.096640168898028],[-60.070428894999964,-3.095660164898071],[-60.06944888799996,-3.092960150898138],[-60.06941888699999,-3.0914401428981853],[-60.070228889999946,-3.0883501268982982],[-60.07012888899993,-3.0859401148983956],[-60.07152889699996,-3.086050114898397],[-60.071008890999956,-3.0808100878985525],[-60.07227889699993,-3.077690070898643],[-60.07304890099994,-3.076870065898685],[-60.07397890599998,-3.076700064898679],[-60.076318914999945,-3.067560016898976],[-60.07605890999998,-3.060969982899189],[-60.07888892599993,-3.0601899778991912],[-60.07890892599995,-3.059759974899246],[-60.08440895599995,-3.057299959899329],[-60.08135893799994,-3.055229950899376],[-60.08053893199997,-3.0537199428994524],[-60.079088922999965,-3.0522999368994554],[-60.079398923999975,-3.050709927899523],[-60.08040892899999,-3.049489921899583],[-60.080548929999956,-3.0483399158996294],[-60.07727890899997,-3.043149889899765],[-60.076548902999946,-3.0394398708999013],[-60.07515889399997,-3.038049864899941],[-60.074808891999965,-3.0365098568999853],[-60.07597889699997,-3.0340698439000535],[-60.07612889699994,-3.0318198319001333],[-60.07769890499998,-3.0301698229001888],[-60.077298901999946,-3.029059816900252],[-60.07833890799997,-3.027759809900291],[-60.07776890399998,-3.0261898019003586],[-60.07933891199996,-3.0246597939003763],[-60.07950891199994,-3.022569782900438],[-60.080178914999976,-3.0216797779004914],[-60.08001891399994,-3.020929773900517],[-60.08043891599993,-3.0202097699005286],[-60.08078891699994,-3.0172897549006543],[-60.08165892099998,-3.0153497449007185],[-60.08100891599997,-3.013869736900725],[-60.08100891599997,-3.0123697289007803],[-60.08248892299998,-3.009679714900872],[-60.08301892399999,-3.006349696900995],[-60.08416892999997,-3.0048496889010483],[-60.08679894499994,-3.004789687901047],[-60.08736894799995,-3.004719686901066]]]}},{"type":"Feature","properties":{"nome":"CIDADE NOVA"},"geometry":{"type":"Polygon","coordinates":[[[-59.992558401999986,-2.983689621901702],[-59.992698401999974,-2.9832996199017594],[-59.993598406999986,-2.983049617901733],[-59.992038399999956,-2.985989633901661],[-59.993448407999956,-2.986279634901651],[-59.99248840499996,-2.9923496669014167],[-59.98852838299995,-2.9925196699014633],[-59.98478836499998,-2.999409706901185],[-59.98468836699994,-3.0052397379010096],[-59.985198372999946,-3.013189778900765],[-59.98609837899995,-3.0139497819007217],[-59.988128390999975,-3.0144097839007222],[-59.98923839699995,-3.0153197879006837],[-59.99007840199994,-3.0153997879007006],[-59.99127840999994,-3.017119795900647],[-59.991808412999944,-3.0171997959006203],[-59.99099840899999,-3.0197698099005508],[-59.99225841699996,-3.0218698199004748],[-59.99356842399993,-3.0207498139005033],[-59.99412842799995,-3.021369816900477],[-59.99514843299995,-3.0204398119005185],[-59.996708442999925,-3.022219819900485],[-59.997388446999935,-3.0222898199004793],[-59.99792844999996,-3.022959822900441],[-59.99897845599998,-3.022749821900471],[-59.99971845999995,-3.02210981790045],[-60.00093846699997,-3.022209817900476],[-60.00120847499994,-3.0361198899000086],[-60.00986852699998,-3.042469918899778],[-60.00077847599994,-3.0430499258998123],[-60.00051847399993,-3.0424899228997924],[-59.986108391999956,-3.0424499298998224],[-59.98398838099996,-3.04359993689976],[-59.98331837699994,-3.0442499398997214],[-59.98295837599994,-3.0457499478997168],[-59.98003835999998,-3.0475799588996373],[-59.97960835899994,-3.0493699688995637],[-59.978438352999945,-3.0508299768995504],[-59.977708348999954,-3.0510299778995367],[-59.97746834799994,-3.052189983899464],[-59.97795835199997,-3.054589996899385],[-59.978418353999984,-3.0547499968993774],[-59.97859835599997,-3.0557500018993795],[-59.97985836399994,-3.0571100088992966],[-59.97976836399994,-3.059100018899272],[-59.980898370999974,-3.060050022899248],[-59.98344838599997,-3.0610600278991704],[-59.98416838999999,-3.062140032899135],[-59.98526839699996,-3.0623500328991673],[-59.98607840199997,-3.064090041899113],[-59.986868406999974,-3.064290042899099],[-59.98734840999998,-3.0651000468990377],[-59.98683840799999,-3.066680054899006],[-59.98727841199997,-3.0694400688988988],[-59.985538402999964,-3.0720900838988445],[-59.985158401999975,-3.074050093898788],[-59.98434839699996,-3.074830097898738],[-59.98337839199996,-3.0749000988987154],[-59.98080837699996,-3.0730400908987843],[-59.98018837299997,-3.0731000908988046],[-59.97949836899995,-3.0723400878988474],[-59.97928836799996,-3.0725800888987918],[-59.97854836299995,-3.072280087898829],[-59.978628363999974,-3.071820085898831],[-59.97818836099999,-3.071460083898863],[-59.97346833399997,-3.0706900818988636],[-59.970738316999984,-3.0683300708989325],[-59.967968300999985,-3.0673500668989844],[-59.96654829199997,-3.0655600588990417],[-59.95984825199997,-3.0611800388991965],[-59.95803823999995,-3.0582800248992625],[-59.95641822999993,-3.0566700178993598],[-59.95489822099995,-3.0552500108993694],[-59.95340821199995,-3.0545500078994303],[-59.951178198999976,-3.0519099948994977],[-59.946008166999945,-3.0480099778995933],[-59.94340815099998,-3.044539960899718],[-59.94282814799993,-3.0444999608997088],[-59.94047813099996,-3.037429924899982],[-59.939938127999945,-3.0372799248999693],[-59.94007812799999,-3.0366199208999918],[-59.93325808399998,-3.024139859900384],[-59.93288808099998,-3.0215698469005012],[-59.93428808599998,-3.0173298239006154],[-59.934158084999986,-3.015239812900676],[-59.933628080999945,-3.0143398089007474],[-59.93482808699997,-3.012259796900797],[-59.934958086999984,-3.0096497839009007],[-59.93600809199995,-3.00710976990095],[-59.94981817099994,-3.0092097749008664],[-59.95602820699998,-3.0105297789008647],[-59.95662820799998,-3.0069497599009503],[-59.96609826299994,-3.0084097629009348],[-59.96898827099994,-2.9902996669014907],[-59.97120828299995,-2.9899496649014994],[-59.97174828599998,-2.9894196619015205],[-59.972868292999976,-2.9896596619015336],[-59.97372829699999,-2.989149658901557],[-59.97363829699999,-2.98956966190153],[-59.97444830099994,-2.9893896599015632],[-59.97545830799999,-2.9902996639015202],[-59.97578830899994,-2.990079662901523],[-59.976758314999984,-2.9905796649014764],[-59.977038315999955,-2.9900496619014993],[-59.97841832499996,-2.990529663901506],[-59.97898832699997,-2.9898996609014943],[-59.980078333999984,-2.9901696619015303],[-59.981988343999944,-2.987919648901576],[-59.98230834499998,-2.988109649901589],[-59.98337835099994,-2.9872496449016235],[-59.98384835399998,-2.987509645901629],[-59.98402835499996,-2.987159643901632],[-59.986438367999945,-2.98683964090163],[-59.98671836899996,-2.985799635901672],[-59.98721837199998,-2.9858996359016468],[-59.98760837399994,-2.9846396289017068],[-59.988348377999955,-2.9838096249017068],[-59.98890838099999,-2.9841196259017],[-59.99191839799994,-2.9834596209017334],[-59.992488400999946,-2.9836996219017364],[-59.992558401999986,-2.983689621901702]]]}}]}